name,borough_name,website,borough_code,address1,address2,address3,os_addressbase_uprn,ward_2018_name,ward_2018_code,easting,northing,longitude,latitude,runtime
Domobaal,Camden,http://www.domobaal.com/#,E09000007,3 John Street,NA,NA,10091862142,Holborn and Covent Garden,E05000138,530895.0001221001,181983.00012210011,-0.11312214157269909,51.5210958554662,11/27/2022
Eagle Gallery,Islington,http://www.emmahilleagle.com/#,E09000019,159 Farringdon Road,NA,NA,5300033028,Clerkenwell,E05000370,531231.0001221001,182276.00012210011,-0.10817231883974543,51.52365123141501,11/27/2022
Work,Islington,http://workgallery.co.uk/#,E09000019,308 Essex Road,NA,NA,10091003649,Canonbury,E05000369,532453.0001221001,184386.00012210011,-0.08977259046793404,51.54232944454154,11/27/2022
Usurp,Harrow,http://www.usurp.org.uk/exhibitions/#,E09000015,140 Vaughan Road,NA,NA,100021292207,West Harrow,E05000305,514472.9600829929,187977.3900756985,-0.347784663372473,51.57854553008754,11/27/2022
Catto Gallery,Camden,http://www.cattogallery.co.uk/#,E09000007,100 Heath Street,NA,NA,5010317,Hampstead Town,E05000135,526370.0001221001,185974.00012210011,-0.17688165030211767,51.55799727664291,11/27/2022
Freespace Gallery,Camden,http://freespacegallery.org/#,E09000007,2 Bartholomew Road,NA,NA,5021000,Cantelowes,E05000131,529075.0001221001,184696.00012210011,-0.13834809402799206,51.54589843157466,11/27/2022
Orange Dot Gallery,Camden,http://www.orangedotgallery.co.uk/#,E09000007,54 Tavistock Place,NA,NA,5030299,Bloomsbury,E05000129,530168.0001221001,182414.00012210011,-0.12343666214499839,51.52513757373208,11/27/2022
Lawrence Alkin Gallery,Camden,http://www.lawrencealkingallery.com/#,E09000007,42 New Compton Street,NA,NA,5066491,Holborn and Covent Garden,E05000138,530017.0001221001,181273.00012210011,-0.12603336584479355,51.51491744327688,11/27/2022
University of the Arts London Gallery,Camden,http://www.arts.ac.uk/gallery.htm#,E09000007,272 High Holborn,NA,NA,5154466,Holborn and Covent Garden,E05000138,530791.0001221001,181553.00012210011,-0.11478007113089457,51.51725528186843,11/27/2022
Gallery K,Camden,http://www.gallery-k.co.uk/#,E09000007,101-103 Heath Street,NA,NA,5082905,Hampstead Town,E05000135,526359.0001221001,186047.00012210011,-0.1770140191677395,51.55865585524279,11/27/2022
Austin Desmond Fine Art,Camden,http://austindesmond.com/#,E09000007,Pied Bull Yard ,68⁄69 Great Russell Street,NA,5083316,Holborn and Covent Garden,E05000138,530234.0001221001,181653.00012210011,-0.12276705654847686,51.518282758980185,11/27/2022
Brunei Gallery,Camden,http://www.soas.ac.uk/gallery/#,E09000007,SOAS,Thornhaugh Street,NA,5086881,Bloomsbury,E05000129,529885.0001221001,182040.00012210011,-0.12765208427876326,51.52184135788905,11/27/2022
The October Gallery,Camden,http://www.octobergallery.co.uk/#,E09000007,24 Old Gloucester Street,NA,NA,5087208,Holborn and Covent Garden,E05000138,530412.0001221001,181869.00012210011,-0.1201228442265238,51.52018301360577,11/27/2022
Rebecca Hossack Gallery 2,Camden,http://www.richard-green.com/#,E09000007,"28 Charlotte Street,",NA,NA,5087275,Bloomsbury,E05000129,529497.0001221001,181651.00012210011,-0.13338505419017377,51.51843425271089,11/27/2022
Rebecca Hossack Gallery 1,Camden,http://www.rebeccahossack.com/#,E09000007,2a Conway Street,NA,NA,5087297,Bloomsbury,E05000129,529172.0001221001,181988.00012210011,-0.13794349613765736,51.52153754226522,11/27/2022
The Framers Gallery,Camden,http://www.theframersgallery.co.uk/#,E09000007,36 Windmill Street,NA,NA,5087378,Bloomsbury,E05000129,529553.0001221001,181648.00012210011,-0.13257941483817628,51.518394446447225,11/27/2022
Beside the Wave,Camden,http://www.beside-the-wave.co.uk/#,E09000007,41 Chalcot Road,NA,NA,5087431,Camden Town with Primrose Hill,E05000130,528105.0001221001,183978.00012210011,-0.1525919870830447,51.53966629219459,11/27/2022
Woolff Gallery,Camden,http://www.woolffgallery.co.uk/#,E09000007,89 Charlotte St,NA,NA,5087726,Bloomsbury,E05000129,529347.0001221001,181817.00012210011,-0.1354850327878919,51.51996058691514,11/27/2022
Lahd Gallery,Camden,http://www.lahdgallery.com/#,E09000007,92 Heath Street,NA,NA,5087751,Hampstead Town,E05000135,526368.0001221001,185942.00012210011,-0.17692199112178644,51.5577101132048,11/27/2022
The Cob Gallery,Camden,http://www.cobgallery.com/#,E09000007,205 Royal College Street,NA,NA,5087949,Camden Town with Primrose Hill,E05000130,529222.0001221001,184116.00012210011,-0.1364421334895268,51.5406519294111,11/27/2022
Edge of Arabia,Camden,http://edgeofarabia.com/#,E09000007,5 Southampton Place,NA,NA,5088047,Holborn and Covent Garden,E05000138,530425.0001221001,181584.00012210011,-0.12004105725416073,51.51761853608727,11/27/2022
Hanmi Gallery,Camden,http://www.hanmigallery.co.uk/#,E09000007,30 Maple Street,NA,NA,5088144,Bloomsbury,E05000129,529212.0001221001,182006.00012210011,-0.13736060870916686,51.521690170058086,11/27/2022
Gagosian Gallery 1,Camden,http://www.gagosian.com/#,E09000007,6-24 Brittania Street,NA,NA,5088316,King's Cross,E05000141,530642.0001221001,182922.00012210011,-0.11641876879404396,51.52959380292217,11/27/2022
L. Ron Hubbard’s Fitzroy House,Camden,http://www.fitzroyhouse.org/#,E09000007,37 Fitzroy Street,NA,NA,5088512,Bloomsbury,E05000129,529194.0001221001,182039.00012210011,-0.13760783558744277,51.521990883152284,11/27/2022
Novelty Automation,Camden,http://www.novelty-automation.com/#,E09000007,1A Princeton Street,NA,NA,5105749,Holborn and Covent Garden,E05000138,530748.0001221001,181763.00012210011,-0.11532158690692783,51.51915263597547,11/27/2022
Charlie Dutton Gallery,Camden,http://www.charlieduttongallery.com/#,E09000007,1a Princeton Street,NA,NA,5105749,Holborn and Covent Garden,E05000138,530748.0001221001,181763.00012210011,-0.11532158690692783,51.51915263597547,11/27/2022
Simon Oldfield,Camden,http://simonoldfield.com/#,E09000007,Bloomsbury Square,NA,NA,5106153,Holborn and Covent Garden,E05000138,530299.0001221001,181629.00012210011,-0.12183954306433503,51.5180520630542,11/27/2022
The Gallery at 94,Camden,http://www.galleryat94.com/#,E09000007,94 Cleveland Street,NA,NA,5109564,Bloomsbury,E05000129,529057.0001221001,182047.00012210011,-0.13957870341670026,51.52209411198271,11/27/2022
Tristan Hoare,Camden,http://www.tristanhoare.co.uk/#,E09000007,6 Fitzroy Square,NA,NA,5113050,Bloomsbury,E05000129,529177.0001221001,182145.00012210011,-0.13781388869143038,51.52294747043692,11/27/2022
Hardy Tree Gallery,Camden,http://hardytreegallery.com/#,E09000007,119 Pancras Road,NA,NA,5135046,St. Pancras and Somers Town,E05000143,529878.0001221001,183272.00012210011,-0.1272985753793221,51.53291576311641,11/27/2022
University College London Museums,Camden,http://www.ucl.ac.uk/museums/#,E09000007,Gower Street,NA,NA,5157423,Bloomsbury,E05000129,529548.0001221001,182275.00012210011,-0.13242087849398657,51.52403087727448,11/27/2022
Contemporary Applied Arts,Camden,http://www.caa.org.uk/#,E09000007,2 Percy Street,NA,NA,5159812,Bloomsbury,E05000129,529566.0001221001,181538.00012210011,-0.13243258375336472,51.517402817420084,11/27/2022
Architectural Association,Camden,http://www.aaschool.ac.uk/PUBLIC/WHATSON/exhibitions.php#,E09000007,36 Bedford Square,NA,NA,5176539,Bloomsbury,E05000129,529797.0001221001,181578.00012210011,-0.12909011780971588,51.517709284604244,11/27/2022
The Crypt Gallery,Camden,http://cryptgallery.org.uk/#,E09000007,St Pancras Church,Euston Road,NA,5188543,King's Cross,E05000141,529807.0001221001,182564.00012210011,-0.12858273318652863,51.52656883177426,11/27/2022
CubeFuture,Tower Hamlets,http://www.cubefuture.com/#,E09000030,33 Fournier Street,NA,NA,6001683,Spitalfields & Banglatown,E05009333,533818.0001221001,181808.00012210011,-0.07107838351229062,51.51883798985443,11/27/2022
Eleven Spitalfields,Tower Hamlets,http://www.elevenspitalfields.com/#,E09000030,11 Princelet Street,NA,NA,6001684,Spitalfields & Banglatown,E05009333,533803.0001221001,181864.00012210011,-0.07127320297648504,51.51934483700476,11/27/2022
Leyden Gallery,Tower Hamlets,http://www.leydengallery.com/#,E09000030,9/9a Leyden Street,NA,NA,6001837,Spitalfields & Banglatown,E05009333,533578.0001221001,181529.00012210011,-0.07464152940295812,51.516387321729994,11/27/2022
Brick Lane Gallery,Tower Hamlets,http://www.thebricklanegallery.com/#,E09000030,216 Brick Lane,NA,NA,6002804,Weavers,E05009335,533891.0001221001,182381.00012210011,-0.06980899237465095,51.52397044966269,11/27/2022
Espacio Gallery,Tower Hamlets,http://www.espaciogallery.com/#,E09000030,159 Bethnal Green Road,NA,NA,6005162,Weavers,E05009335,533948.0001221001,182508.00012210011,-0.06893947782928478,51.525098325496224,11/27/2022
Whitechapel Gallery,Tower Hamlets,http://www.whitechapel.org/#,E09000030,77-82 Whitechapel High Street,NA,NA,6011122,Spitalfields & Banglatown,E05009333,533987.0001221001,181459.00012210011,-0.06877652199914525,51.51566132969674,11/27/2022
The Mews Project Space,Tower Hamlets,http://the-mews-about.blogspot.co.uk/#,E09000030,15c Osborn Street,NA,NA,6015759,Spitalfields & Banglatown,E05009333,534006.0001221001,181488.00012210011,-0.06849180502799462,51.51591745593464,11/27/2022
Stolenspace Gallery,Tower Hamlets,https://www.stolenspace.com/#,E09000030,"17 Osborn St,",NA,NA,6015771,Spitalfields & Banglatown,E05009333,534002.0001221001,181493.00012210011,-0.06854752289717148,51.515963341775205,11/27/2022
Maureen Paley,Tower Hamlets,http://www.maureenpaley.com/#,E09000030,21 Herald Street,NA,NA,6015931,St. Peter's,E05009331,534957.9201049954,182495.3500976935,-0.054393816886146154,51.524744153072696,11/27/2022
Four Corners Gallery,Tower Hamlets,http://www.fourcornersfilm.co.uk/gallery#,E09000030,121 Roman Road,NA,NA,6039056,Bethnal Green,E05009317,535432.0501098931,182913.16009519994,-0.04740216859274455,51.52838558983192,11/27/2022
Arebyte,Tower Hamlets,http://www.arebyte.com/#,E09000030,Unit 4,49 White Post Lane,NA,6077533,Bow East,E05009319,537158.0001221001,184516.00012210011,-0.02190952089508721,51.542373797270294,11/27/2022
Proof London,Tower Hamlets,http://prooflondon.com/#,E09000030,26 Cheshire Street,NA,NA,6089640,Weavers,E05009335,533963.9600829929,182268.26007079333,-0.06880071044923837,51.52293990964904,11/27/2022
Vilma Gold,Tower Hamlets,http://vilmagold.com/#,E09000030,6 Minerva Street,NA,NA,6143359,St. Peter's,E05009331,534681.0001221001,183194.00012210011,-0.05811633989295439,51.531089246881265,11/27/2022
Modern Art 2,Tower Hamlets,http://www.modernart.net/#,E09000030,50-58 Vyner Street,NA,NA,6146632,St. Peter's,E05009331,535015.0001221001,183539.00012210011,-0.053171277632224,51.53411006887645,11/27/2022
Chisenhale Gallery,Tower Hamlets,http://www.chisenhale.org.uk/#,E09000030,64 Chisenhale Road,NA,NA,6146768,Bow West,E05009320,536057.4301147982,183395.04010009766,-0.03820519400578466,51.53256597028292,11/27/2022
Forman's Smokehouse Gallery,Tower Hamlets,http://smokehousegallery.org/#,E09000030,Stour Road,Fish Island,NA,6151026,Bow East,E05009319,537327.120117195,184158.01007079333,-0.01961174556490397,51.53911538471839,11/27/2022
The Alexander Miles Gallery,Tower Hamlets,http://www.thealexandermilesgallery.com/,E09000030,"Unit K, The Ivory House",St.Katharine Docks,NA,6155400,St. Katharine's & Wapping,E05009330,533954.0001221001,180485.00012210011,-0.06962201284443975,51.506915448464056,11/27/2022
Calvert 22,Tower Hamlets,http://calvert22.org/#,E09000030,22 Calvert Avenue,NA,NA,6159644,Weavers,E05009335,533550.8400878981,182550.37011719495,-0.07464558405501236,51.52557319898339,11/27/2022
Breese Little,Tower Hamlets,http://www.breeselittle.com/#,E09000030,Unit 1,249-253 Cambridge Heath Road,NA,6161973,St. Peter's,E05009331,534986.2901000977,182549.24011229724,-0.05396442457929886,51.52522169606039,11/27/2022
Public Exhibitions,Tower Hamlets,http://publicexhibitions.biz/#,E09000030,"Black Gates,",Hassard Street,NA,6178041,Weavers,E05009335,533810.7200927958,183065.84008789808,-0.07070540600129996,51.53014438548626,11/27/2022
Union Gallery,Tower Hamlets,http://www.union-gallery.com/#,E09000030,94 Teesdale Street,NA,NA,6178788,St. Peter's,E05009331,534574.1500854939,182992.5601195991,-0.05973298351893742,51.52930432704981,11/27/2022
Cell Project Space,Tower Hamlets,http://www.cellprojects.org/#,E09000030,258 Cambridge Heath Road,NA,NA,6180728,St. Peter's,E05009331,534891.0601195991,183386.59008789808,-0.05501570144038167,51.532769950912936,11/27/2022
Unit 9,Tower Hamlets,http://www.unit9.london/#,E09000030,The Huntingdon Estate,Ebor St / Bethnal Green Rd,NA,6210892,Weavers,E05009335,533653.0001221001,182330.00012210011,-0.07325729518658558,51.52356847709463,11/27/2022
Raven Row,Tower Hamlets,http://www.ravenrow.org/#,E09000030,56 Artillery Lane,NA,NA,6653355,Spitalfields & Banglatown,E05009333,533531.0001221001,181668.00012210011,-0.07526589104195985,51.51764768419692,11/27/2022
Pitzhanger Manor House & Gallery,Ealing,http://www.pitzhanger.org.uk/#,E09000009,Walpole Park,Mattock Lane,NA,12141314,Walpole,E05000192,517576.0001221001,180467.00012210011,-0.30552857075153844,51.51039955309848,11/27/2022
Studio 106,Hammersmith and Fulham,http://www.studio106artgallery.org/#,E09000013,106 Dawes Road,NA,NA,34055693,Fulham Broadway,E05000254,524812.0001221001,177256.00012210011,-0.20243496984839404,51.479986497443896,11/27/2022
Louise T Blouin Institute,Hammersmith and Fulham,http://www.ltbfoundation.org/#,E09000013,3 Olaf Street,NA,NA,34115265,Shepherd's Bush Green,E05000263,523777.0001221001,180523.00012210011,-0.2161873061013709,51.50957827714069,11/27/2022
Bhavan Art Gallery,Hammersmith and Fulham,http://www.bhavan.net/art-gallery#,E09000013,4a Castletown Road,NA,NA,34140084,North End,E05000258,524576.0001221001,178281.00012210011,-0.2054703932159304,51.489251352478554,11/27/2022
Hidde van Seggelen Gallery,Hammersmith and Fulham,http://www.hiddevanseggelen.com/#,E09000013,2 Michael Road,NA,NA,34144768,Sands End,E05000262,525899.0001221001,176959.00012210011,-0.1868940715206448,51.477076110318386,11/27/2022
The Cynthia Corbett Gallery,Merton,http://www.thecynthiacorbettgallery.com/#,E09000024,15 Claremont Lodge,NA,NA,48022286,Raynes Park,E05000469,523684.0001221001,169998.00012210011,-0.22120956917731563,51.41499764802505,11/27/2022
Bank of England Museum,City and County of the City of London,http://www.bankofengland.co.uk/education/Pages/museum/visiting/default.aspx#,E09000001,Bartholomew Lane,NA,NA,95511162,Walbrook,E05009312,532790.0001221001,181212.00012210011,-0.08611216324620276,51.51372410896053,11/27/2022
Carter Lane Gallery,City and County of the City of London,http://www.carterlanegallery.com/#,E09000001,49 Carter Lane,NA,NA,95514285,Castle Baynard,E05009297,531915.0001221001,181045.00012210011,-0.09877845272173807,51.51242821159213,11/27/2022
Pumphouse Gallery,Wandsworth,http://pumphousegallery.org.uk/#,E09000032,Battersea Park,NA,NA,121032970,Queenstown,E05000620,528234.0001221001,177174.00012210011,-0.15320764612878962,51.47848392672181,11/27/2022
Brent Artists Resource,Brent,http://www.brentartistsresource.org.uk/#,E09000005,4⁄5 Queen’s Parade,NA,NA,202054057,Willesden Green,E05000105,523257.0001221001,184692.00012210011,-0.2222181595873014,51.547163500729425,11/27/2022
Crane Kalman,Kensington and Chelsea,http://cranekalman.com/#,E09000020,178 Brompton Road,NA,NA,217007694,Brompton & Hans Town,E05009389,527312.0001221001,179262.00012210011,-0.16572557868316523,51.4974589913596,11/27/2022
Hollywood Road Gallery,Kensington and Chelsea,http://www.hollywoodroadgallery.com/#,E09000020,12 Hollywood Road,NA,NA,217040769,Redcliffe,E05009402,526138.0001221001,177905.00012210011,-0.18311608625608153,51.48552551810924,11/27/2022
The Rowley Gallery,Kensington and Chelsea,http://www.rowleygallery.co.uk/#,E09000020,115 Kensington Church Street,NA,NA,217043176,Campden,E05009390,525381.0001221001,180194.00012210011,-0.1932005422484698,51.50626751089039,11/27/2022
Japanese Gallery,Kensington and Chelsea,http://www.japanese-gallery.com/#,E09000020,66D Kensington Church St,NA,NA,217043283,Campden,E05009390,525454.0001221001,180034.00012210011,-0.19220606731838272,51.50481322380293,11/27/2022
Northcote Gallery Chelsea,Kensington and Chelsea,http://www.northcotegallery.com/#,E09000020,253 King’s Road,NA,NA,217046439,Chelsea Riverside,E05009391,527019.5601195991,177927.90008549392,-0.1704168490735079,51.48553399220532,11/27/2022
Museum of Brands,Kensington and Chelsea,http://www.museumofbrands.com/#,E09000020,111-117 Lancaster Road,NA,NA,217050374,Notting Dale,E05009399,524222.0001221001,181233.00012210011,-0.20952731435654248,51.51586214968469,11/27/2022
James Harvey British Art,Kensington and Chelsea,http://www.jhba.co.uk/#,E09000020,15 Langton Street,NA,NA,217051631,Stanley,E05009405,526410.0001221001,177502.00012210011,-0.17934463415026414,51.48184261458816,11/27/2022
Doyle Devere,Kensington and Chelsea,http://www.doyledevere.co.uk/#,E09000020,30 Ledbury Road,NA,NA,217052558,Pembridge,E05009400,525083.0001221001,180976.00012210011,-0.19721510002100648,51.51336220680495,11/27/2022
The Orangery,Kensington and Chelsea,http://www.rbkc.gov.uk/subsites/museums/theorangery.aspx#,E09000020,Holland Park,NA,NA,217064477,Campden,E05009390,525868.0001221001,180183.00012210011,-0.1861903441582244,51.50606036295011,11/27/2022
Tryon St,Kensington and Chelsea,http://www.tryonst.co.uk/#,E09000020,7-9 Tryon Street,NA,NA,217087920,Royal Hospital,E05009403,527637.0001221001,178420.00012210011,-0.16135024091341837,51.48981789329163,11/27/2022
Lacey Contemporary,Kensington and Chelsea,http://www.laceycontemporarygallery.co.uk/#,E09000020,8 Clarendon Cross,NA,NA,217103015,Notting Dale,E05009399,524302.0001221001,180581.00012210011,-0.2086047848542392,51.50998431631176,11/27/2022
The Dot Project,Kensington and Chelsea,http://www.thedotproject.com/#,E09000020,94 Fulham Road,NA,NA,217103153,Courtfield,E05009393,526778.0001221001,178339.00012210011,-0.1737467099357595,51.48928315410843,11/27/2022
Offer Waterman & Co,Kensington and Chelsea,http://www.waterman.co.uk/#,E09000020,11 Langton Street,NA,NA,217103621,Stanley,E05009405,526417.0001221001,177495.00012210011,-0.17924637565079424,51.48177813385481,11/27/2022
Cadogan Contemporary,Kensington and Chelsea,http://www.cadogancontemporary.com/#,E09000020,87 Old Brompton Road,NA,NA,217103741,Courtfield,E05009393,526661.0001221001,178639.00012210011,-0.17532351902573062,51.492005766101194,11/27/2022
The Muse,Kensington and Chelsea,http://themuseat269.com/#,E09000020,269 Portobello Rd,NA,NA,217103948,Colville,E05009392,524513.0001221001,181414.00012210011,-0.20527124336270106,51.51742491369059,11/27/2022
Medici Gallery (south Kensington),Kensington and Chelsea,http://www.medicigallery.co.uk/c/183/Contact,E09000020,26 Thurloe Street,NA,NA,217104170,Brompton & Hans Town,E05009389,526885.0001221001,178842.00012210011,-0.17202534722222998,51.49378008324027,11/27/2022
GGGallery,Kensington and Chelsea,http://www.gggallery.co.uk/#,E09000020,15b Blenheim Crescent,NA,NA,217106096,Colville,E05009392,524601.0001221001,181162.00012210011,-0.20409258752616868,51.515140514967236,11/27/2022
Richard Young Gallery,Kensington and Chelsea,http://www.richardyounggallery.co.uk/#,E09000020,4 Holland Street,NA,NA,217106179,Campden,E05009390,525574.4301147982,179813.04010009766,-0.190550282889605,51.50280048067015,11/27/2022
Hackelbury,Kensington and Chelsea,http://www.hackelbury.co.uk/#,E09000020,4 Launceston Place,NA,NA,217106588,Queen's Gate,E05009401,526057.0001221001,179349.00012210011,-0.18376634660807697,51.498522251876686,11/27/2022
Richard Green 2,City of Westminster,http://www.richard-green.com/#,E09000033,33 New Bond Street,NA,NA,10033538913,West End,E05000649,528916.6000976935,180835.50012210011,-0.1420447126817099,51.511237525402855,11/27/2022
The Foundry Gallery,Kensington and Chelsea,http://www.thefoundrygallery.org/#,E09000020,39 Old Church Street,NA,NA,217106994,Chelsea Riverside,E05009391,527001.0001221001,177743.00012210011,-0.1707505564830708,51.48387629093848,11/27/2022
The Little Black Gallery,Kensington and Chelsea,http://www.thelittleblackgallery.com/#,E09000020,13A Park Walk,NA,NA,217107061,Stanley,E05009405,526476.0001221001,177900.00012210011,-0.1782519896397857,51.485405074488,11/27/2022
Saatchi Gallery,Kensington and Chelsea,http://www.saatchi-gallery.co.uk/#,E09000020,Duke of York's HQ,King's Road,NA,217110596,Royal Hospital,E05009403,527930.0001221001,178458.00012210011,-0.15711805784642063,51.490093205736024,11/27/2022
Graffik Gallery,Kensington and Chelsea,http://graffikgallery.com/#,E09000020,284 Portobello Road,NA,NA,217113237,Golborne,E05009396,524469.0001221001,181571.00012210011,-0.20584966332452415,51.5188457387496,11/27/2022
Flying Colours Gallery,Kensington and Chelsea,http://www.flyingcoloursgallery.com/#,E09000020,6 Burnsall Street,NA,NA,217115299,Stanley,E05009405,527415.0001221001,178246.00012210011,-0.16460926741564677,51.488304075170824,11/27/2022
Michael Hoppen Gallery,Kensington and Chelsea,http://www.michaelhoppengallery.com/#,E09000020,3 Jubilee Place,NA,NA,217120296,Stanley,E05009405,527426.0001221001,178263.00012210011,-0.16444476437646816,51.48845439044592,11/27/2022
Dreamspace Gallery,Islington,https://adremgroup.com/dreamspace-gallery/#,E09000019,3 Dufferin Street,NA,NA,5300028758,Bunhill,E05000367,532439.0001221001,182132.00012210011,-0.09082226978678988,51.52207499889632,11/27/2022
Bloomberg Space,Islington,http://www.bloombergspace.com/#,E09000019,50 Finsbury Square,NA,NA,5300033404,Bunhill,E05000367,532812.0001221001,181854.00012210011,-0.08555330502467778,51.5194888845963,11/27/2022
Arcade,Islington,http://arcadefinearts.com/#,E09000019,87 Lever Street,NA,NA,5300056285,Bunhill,E05000367,532148.0001221001,182617.00012210011,-0.09483273018680012,51.52650210727838,11/27/2022
Sway Gallery,Islington,http://www.sway-gallery.com/#,E09000019,70-72 Old Street,NA,NA,5300069554,Bunhill,E05000367,532242.0001221001,182311.00012210011,-0.0935932370986991,51.523729927834914,11/27/2022
Islington Arts Factory,Islington,http://www.islingtonartsfactory.org/#,E09000019,2 Parkhurst Rd,NA,NA,5300075947,Holloway,E05000375,530237.0001221001,185595.00012210011,-0.12126529495189677,51.5537112525942,11/27/2022
James Freeman Gallery,Islington,http://www.sesameart.com/#,E09000019,354 Upper Street,NA,NA,5300095173,St. Peter's,E05000380,531565.0001221001,183447.00012210011,-0.10292269841256453,51.53409790726736,11/27/2022
Curious Duke Gallery,Islington,http://curiousdukegallery.com/#,E09000019,173 Whitecross Street,NA,NA,5300102398,Bunhill,E05000367,532358.0001221001,182252.00012210011,-0.09194414235573631,51.52317248787824,11/27/2022
Space Station 65,Lambeth,http://spacestationsixtyfive.com/#,E09000022,373 Kennington Road,NA,NA,10000445110,Prince's,E05000427,531269.0001221001,178089.00012210011,-0.10918349357193413,51.4860113409195,11/27/2022
CGP London,Southwark,http://cgplondon.org/#,E09000028,1 Park Approach,Southwark Park,NA,10000811263,Rotherhithe,E05011112,535194.0001221001,179040.00012210011,-0.05231758823437974,51.493633448578684,11/27/2022
Purdy Hicks,Southwark,http://www.purdyhicks.com/#,E09000028,65 Hopton Street,NA,NA,10000811558,Borough & Bankside,E05011095,531816.0001221001,180434.00012210011,-0.1004329075415528,51.506959931776564,11/27/2022
Bethlem Gallery,Bromley,http://bethlemgallery.com/#,E09000006,Bethlem Royal Hospital,Monks Orchard Road,NA,10003615210,Kelsey and Eden Park,E05000120,537211.0001221001,166495.00012210011,-0.02814025538515905,51.380402272119106,11/27/2022
Sprout Community Arts,Wandsworth,http://www.sproutarts.com/#,E09000032,74 Moyser Road,NA,NA,10008157629,Furzedown,E05000615,528915.0001221001,171075.00012210011,-0.14562839355715454,51.42351213665694,11/27/2022
Flowers Gallery East,Hackney,http://www.flowersgallery.com/#,E09000012,82 Kingsland Road,NA,NA,10008242588,Haggerston,E05009375,533477.0001221001,182945.00012210011,-0.07555989180650395,51.52913735256938,11/27/2022
Parasol unit,Hackney,http://www.parasol-unit.org/#,E09000012,14 Wharf Road,NA,NA,10008244219,Hoxton West,E05009378,532235.9500731975,182993.68011479825,-0.0934240709828386,51.52986691977714,11/27/2022
Five Years,Hackney,http://www.fiveyears.org.uk/#,E09000012,"Unit 66, Regent Studios",8 Andrews Road,NA,10008244601,London Fields,E05009381,534634.0001221001,183627.00012210011,-0.058627996292510684,51.53499195460402,11/27/2022
Rocket Gallery,Hackney,http://www.rocketgallery.com/#,E09000012,56 Shoreditch High Street,NA,NA,10008304903,Hoxton East & Shoreditch,E05009377,533525.0001221001,182326.00012210011,-0.07510293960366142,51.52356280971235,11/27/2022
Hoxton Art Gallery,Hackney,http://www.hoxtonartgallery.co.uk/#,E09000012,64 Charlotte Road,NA,NA,10008317965,Hoxton East & Shoreditch,E05009377,533214.0001221001,182566.00012210011,-0.07949283424002247,51.525793244270155,11/27/2022
Galerie8,Hackney,http://www.galerie8.co.uk/#,E09000012,203 Richmond Road,NA,NA,10008325659,Hackney Central,E05009372,534827.0200805962,184532.7100829929,-0.055499462315294124,51.54308573640244,11/27/2022
The Proud Archivist,Hackney,http://www.theproudarchivist.co.uk/#,E09000012,"The Archivist, Unit V Reliance Wharf",2-10 Hertford Road,NA,10008329599,De Beauvoir,E05009371,533346.5001221001,183789.0601195991,-0.0771205687900491,51.53675408647767,11/27/2022
Charlie Smith,Hackney,http://charliesmithlondon.com/#,E09000012,336 Old Street,NA,NA,10008336390,Hoxton East & Shoreditch,E05009377,533188.0001221001,182597.00012210011,-0.07985571909056487,51.526077987760736,11/27/2022
Unit G Gallery,Hackney,http://unitg.london/gallery/#,E09000012,12A Collent Street,NA,NA,10008339282,Homerton,E05009376,535481.7200927958,184600.34008789808,-0.04603710862978828,51.543536729768526,11/27/2022
BSMT Space,Hackney,http://www.bsmt.co.uk/#,E09000012,5d Stoke Newington Road,NA,NA,10008342181,Shacklewell,E05009382,533536.0001221001,185298.00012210011,-0.0738169106633579,51.55027066360324,11/27/2022
Modern Art 1,Islington,http://www.modernart.net/#,E09000019,4-8 Helmet Row,NA,NA,10008977815,Bunhill,E05000367,532285.0001221001,182401.00012210011,-0.09293991604387153,51.5245287293645,11/27/2022
Vibe Gallery,Southwark,https://www.thegalleryguide.co.uk/galleries/vibe-gallery,E09000028,100 Clement’s Road,NA,NA,10009799375,North Bermondsey,E05011106,534614.0001221001,179093.00012210011,-0.06064802246667941,51.4942481978018,11/27/2022
Royal Observatory,Greenwich,http://www.rmg.co.uk/royal-observatory#,E09000011,Blackheath Avenue,NA,NA,10010200750,Greenwich West,E05000222,538927.8900756985,177271.1000976935,0.000744053983955919,51.476830938629526,11/27/2022
All Visual Arts,Islington,http://www.allvisualarts.org/,E09000019,2 Omega Place,NA,NA,10012789978,Caledonian,E05000368,530472.0001221001,183069.00012210011,-0.11881391655016113,51.530954295890766,11/27/2022
Cubitt Gallery,Islington,http://cubittartists.org.uk/#,E09000019,8 Angel Mews,NA,NA,10012791474,Barnsbury,E05000366,531340.0001221001,183190.00012210011,-0.10626101465789825,51.531840508522315,11/27/2022
Unit 24,Southwark,http://unit24.info/#,E09000028,20 Great Guildford Street,NA,NA,10013527858,Borough & Bankside,E05011095,532107.0001221001,180271.00012210011,-0.09630293796591127,51.50542699866287,11/27/2022
Vitrine,Southwark,http://www.vitrinegallery.co.uk/#,E09000028,15 Bermondsey Square,NA,NA,10013529059,London Bridge & West Bermondsey,E05011104,533321.0900878981,179351.4700927958,-0.07916568848347914,51.496877609329054,11/27/2022
Horatio Jr,Southwark,http://www.horatiojr.com/#,E09000028,"The Lord Nelson, 66 Canon Beck Road",NA,NA,10013529797,Rotherhithe,E05011112,535477.4801024944,179826.75012210011,-0.047934029137016866,51.50063632805163,11/27/2022
The Wandsworth Museum,Wandsworth,http://www.wandsworthmuseum.co.uk/#,E09000032,38 West Hill,NA,NA,10024086836,Fairfield,E05000614,525121.0001221001,174664.00012210011,-0.19890484784682672,51.45662104595018,11/27/2022
Skarstedt Gallery,City of Westminster,http://www.skarstedt.com/#,E09000033,8 Bennet Street,NA,NA,10033524577,St. James's,E05000644,529139.0001221001,180326.00012210011,-0.1390279196652712,51.50660747227156,11/27/2022
Scream,City of Westminster,http://www.screamlondon.com/#,E09000033,27 - 28 Eastcastle Street,NA,NA,10033525838,West End,E05000649,529256.0001221001,181397.00012210011,-0.13695010680723665,51.516206579567104,11/27/2022
Ben Brown Fine Arts,City of Westminster,http://www.benbrownfinearts.com/#,E09000033,12 Brook’s Mews,NA,NA,10033526904,West End,E05000649,528749.0001221001,180904.00012210011,-0.14443379178034624,51.51189141023555,11/27/2022
Marlborough Fine Art,City of Westminster,http://www.marlboroughfineart.com/#,E09000033,6 Albemarle Street,NA,NA,10033528809,West End,E05000649,529118.0001221001,180486.00012210011,-0.1392717761952564,51.508050311619115,11/27/2022
Messum's,City of Westminster,http://www.messums.com/#,E09000033,28 Cork Street,NA,NA,10033532792,West End,E05000649,529074.0001221001,180698.00012210011,-0.13982788465537652,51.509965768509474,11/27/2022
Serpentine Gallery,City of Westminster,http://www.serpentinegallery.org/#,E09000033,Kensington Gardens,NA,NA,10033534401,Knightsbridge and Belgravia,E05000637,526760.0001221001,180007.00012210011,-0.17340652836745013,51.5042790734629,11/27/2022
Frith Street Gallery,City of Westminster,http://www.frithstreetgallery.com/#,E09000033,17-18 Golden Square,NA,NA,10033534803,West End,E05000649,529378.0001221001,180786.00012210011,-0.1354169315296824,51.51068715020305,11/27/2022
Sprovieri,City of Westminster,http://www.sprovieri.com/london/#,E09000033,23 Heddon Street,NA,NA,10033536350,West End,E05000649,529178.0001221001,180773.00012210011,-0.1383024378481515,51.510616078031525,11/27/2022
Berloni,City of Westminster,http://www.berlonigallery.com/#,E09000033,63 Margaret Street,NA,NA,10033537907,West End,E05000649,529136.0001221001,181386.00012210011,-0.13868279272214576,51.51613516354083,11/27/2022
Chelsea Space,City of Westminster,http://www.chelseaspace.org/#,E09000033,Chelsea College of Arts,16 John Islip Street,NA,10033538283,Vincent Square,E05000646,530045.0001221001,178493.00012210011,-0.12665512666921847,51.48992522013866,11/27/2022
Olivier Malingue,City of Westminster,http://oliviermalingue.com/#,E09000033,1st Floor,143 New Bond St,NA,10033538864,West End,E05000649,528888.0001221001,180807.00012210011,-0.14246708539948208,51.51098790023818,11/27/2022
Richard Green 1,City of Westminster,http://www.richard-green.com/#,E09000033,147 New Bond Street,NA,NA,10033538867,West End,E05000649,528901.0001221001,180787.00012210011,-0.14228714895630862,51.51080517889883,11/27/2022
Photographers' Gallery,City of Westminster,http://thephotographersgallery.org.uk/#,E09000033,16-18 Ramillies St,Soho,NA,10033542105,West End,E05000649,529227.0001221001,181197.00012210011,-0.13744120373104068,51.514415669906036,11/27/2022
The Aram Gallery,City of Westminster,http://www.thearamgallery.org/#,E09000033,110 Drury Lane,NA,NA,10033550729,St. James's,E05000644,530629.0001221001,181057.00012210011,-0.11729763047816667,51.51283491197711,11/27/2022
White Cube,City of Westminster,http://whitecube.com/#,E09000033,25-26 Mason’s Yard,NA,NA,10033550744,St. James's,E05000644,529377.0001221001,180387.00012210011,-0.1355777619003192,51.507101275868266,11/27/2022
Willow Gallery,City of Westminster,http://www.willowgallery.com/#,E09000033,40 - 41 Duke Street,St James's,NA,10033555200,St. James's,E05000644,529320.5501098931,180356.29010009766,-0.13640205101791056,51.50683818587989,11/27/2022
Blain Southern,City of Westminster,http://www.blainsouthern.com/#,E09000033,4 Hanover Square,NA,NA,10033556658,West End,E05000649,528953.0001221001,181071.00012210011,-0.14143425127897472,51.51334583331972,11/27/2022
Albemarle Gallery,City of Westminster,http://www.albemarlegallery.com/#,E09000033,49 Albemarle Street,NA,NA,10033567550,West End,E05000649,529095.0001221001,180426.00012210011,-0.13962501244684017,51.507516302488746,11/27/2022
Queen's Gallery,City of Westminster,http://www.royalcollection.org.uk/default.asp?action=article&ID=32#,E09000033,Buckingham Palace Road,NA,NA,10033569645,St. James's,E05000644,529009.0001221001,179499.00012210011,-0.14120276660482478,51.49920428869629,11/27/2022
Rosenfeld Porcini,City of Westminster,http://rosenfeldporcini.com/#,E09000033,37 Rathbone Street,NA,NA,10033569652,West End,E05000649,529427.0001221001,181602.00012210011,-0.134411481897291,51.5180099011953,11/27/2022
Lisson Gallery 1,City of Westminster,http://www.lissongallery.com/#,E09000033,67 Lisson St,Marylebone,NA,10033571495,Church Street,E05000634,527190.0001221001,181831.00012210011,-0.1665554948488374,51.520576341795,11/27/2022
London Print Studio,City of Westminster,http://www.londonprintstudio.org.uk/#,E09000033,425 Harrow Rd,NA,NA,10033572217,Harrow Road,E05000635,524586.0001221001,182278.00012210011,-0.20391402410411838,51.525174492758474,11/27/2022
Eykyn Maclean,City of Westminster,http://www.eykynmaclean.com/#,E09000033,30 St George Street,NA,NA,10033579746,West End,E05000649,528974.0001221001,180908.00012210011,-0.1411914000404835,51.51187603547981,11/27/2022
Laurent Delaye Gallery,City of Westminster,http://www.laurentdelaye.com/#,E09000033,11 Savile Row,NA,NA,10033580791,West End,E05000649,529171.0001221001,180755.00012210011,-0.1384098595355486,51.5104558993194,11/27/2022
Pyms Gallery,City of Westminster,http://www.pymsgallery.com/#,E09000033,9 Mount Street,NA,NA,10033584285,West End,E05000649,528583.0001221001,180668.00012210011,-0.14691096935483247,51.50980810318162,11/27/2022
Imitate Modern,City of Westminster,http://imitatemodern.com/#,E09000033,19 Shepherd Market,NA,NA,10033585747,West End,E05000649,528710.0001221001,180239.00012210011,-0.14523834051471066,51.505923426106264,11/27/2022
Debut Contemporary,City of Westminster,http://www.debutcontemporary.com/#,E09000033,82 Westbourne Grove,NA,NA,10033585998,Bayswater,E05000631,525464.0001221001,181151.00012210011,-0.1916644963815066,51.51485061059572,11/27/2022
Mark Gallery,City of Westminster,http://www.markgallery.co.uk/#,E09000033,9 Porchester Place,NA,NA,10033586949,Hyde Park,E05000636,527388.0001221001,181145.00012210011,-0.16395090373410987,51.51436604158873,11/27/2022
Halcyon Gallery I,City of Westminster,http://www.halcyongallery.com/#,E09000033,144-146 New Bond Street,NA,NA,10033587866,West End,E05000649,528893.0001221001,180796.00012210011,-0.1423990883769936,51.51088789408763,11/27/2022
PM/AM,City of Westminster,http://www.pmam.org/#,E09000033,259-269 Old Marylebone Road,NA,NA,10033588738,Bryanston and Dorset Square,E05000632,527293.0001221001,181516.00012210011,-0.16518537374924083,51.51772195752337,11/27/2022
Graham Hunter Gallery,City of Westminster,http://www.grahamhuntergallery.co.uk/#,E09000033,81 Baker Street,NA,NA,10033590107,Marylebone High Street,E05000641,527971.0001221001,181724.00012210011,-0.15534249945966355,51.519438204949005,11/27/2022
Sims Reed Gallery,City of Westminster,http://gallery.simsreed.com/#,E09000033,The Economist Building,30 Bury Street,NA,10033591023,St. James's,E05000644,529265.9600829929,180304.03009029478,-0.1372074430924372,51.5063809787632,11/27/2022
Getty Images Gallery,City of Westminster,http://www.gettyimagesgallery.com/#,E09000033,46 Eastcastle Street,NA,NA,10033592323,West End,E05000649,529215.0001221001,181351.00012210011,-0.1375575973190826,51.51580252539816,11/27/2022
Sadie Coles HQ,City of Westminster,http://www.sadiecoles.com/#,E09000033,62 Kingly Street,Mayfair,NA,10033594510,West End,E05000649,529231.0001221001,180906.00012210011,-0.13749028201568547,51.511799325011246,11/27/2022
Waddington Custot Galleries,City of Westminster,http://www.waddingtoncustot.com/#,E09000033,11 Cork Street,NA,NA,10033594958,West End,E05000649,529062.0001221001,180657.00012210011,-0.140015737183042,51.50960001236124,11/27/2022
Heartbreak,City of Westminster,http://www.heart-break.co.uk/#,E09000033,17 Bulstrode Street,NA,NA,10033596047,Marylebone High Street,E05000641,528391.0001221001,181477.00012210011,-0.14938174046937,51.51712289453398,11/27/2022
Bernard Jacobson Gallery,City of Westminster,http://www.jacobsongallery.com/#,E09000033,6 Cork Street,NA,NA,10033601869,West End,E05000649,529038.0001221001,180705.00012210011,-0.14034384850692933,51.51003690672344,11/27/2022
St Petersburg Gallery,City of Westminster,http://www.saintpetersburggallery.com/#,E09000033,5A Cork St,Mayfair,NA,10033601869,West End,E05000649,529038.0001221001,180705.00012210011,-0.14034384850692933,51.51003690672344,11/27/2022
Michael Werner Gallery,City of Westminster,http://www.michaelwerner.com/#,E09000033,22 Upper Brook Street,NA,NA,10033602320,West End,E05000649,528054.0001221001,180770.00012210011,-0.15449339941131224,51.510845016706526,11/27/2022
Workplace Gallery,City of Westminster,http://www.workplacegallery.co.uk/#,E09000033,61 Conduit Street,NA,NA,10033604984,West End,E05000649,529105.0001221001,180945.00012210011,-0.13929091029223487,51.51217865768163,11/27/2022
Paradise Row,City of Westminster,http://www.paradiserow.com/#,E09000033,74 Newman Street,NA,NA,10033614774,West End,E05000649,529435.0001221001,181503.00012210011,-0.13433259983833554,51.517118284692735,11/27/2022
Edel Assanti,City of Westminster,http://www.edelassanti.com/#,E09000033,74A Newman Street,NA,NA,10033614780,West End,E05000649,529435.0001221001,181503.00012210011,-0.13433259983833554,51.517118284692735,11/27/2022
Rook & Raven,City of Westminster,http://www.rookandraven.co.uk/#,E09000033,7 Rathbone Place,NA,NA,10033616135,West End,E05000649,529636.0001221001,181419.00012210011,-0.13146795776368161,51.516317218960545,11/27/2022
Partners & Mucciaccia,City of Westminster,http://partnersandmucciaccia.net/#,E09000033,45 Dover Street,NA,NA,10033616760,West End,E05000649,529054.0001221001,180406.00012210011,-0.140222845180459,51.50734591410976,11/27/2022
James Hyman Fine Art,City of Westminster,http://www.jameshymanfineart.com/#,E09000033,5 Saville Row,NA,NA,10033619032,West End,E05000649,529184.0001221001,180715.00012210011,-0.13823727081350243,51.51009341712979,11/27/2022
Hauser & Wirth 2,City of Westminster,http://www.hauserwirth.com/#,E09000033,23 Saville Row,NA,NA,10033621621,West End,E05000649,529112.0001221001,180868.00012210011,-0.13921828562414074,51.511485001661796,11/27/2022
Great Western Studios,City of Westminster,http://www.greatwesternstudios.com/#,E09000033,65 Alfred Street,NA,NA,10033624231,Westbourne,E05000648,525235.0001221001,181795.00012210011,-0.19473446063712327,51.520689711015606,11/27/2022
Aktis Gallery,City of Westminster,http://aktis-gallery.co.uk/#,E09000033,10-11 Park Place,NA,NA,10033625370,St. James's,E05000644,529187.0001221001,180231.00012210011,-0.13837140979365953,51.5057426633081,11/27/2022
Chris Beetles Photographs,City of Westminster,http://www.chrisbeetlesfinephotographs.com/#,E09000033,3-5 Swallow Street,NA,NA,10033625765,West End,E05000649,529355.120117195,180562.98010249436,-0.13582832287332536,51.50868794643743,11/27/2022
Courtauld Institute of Art,City of Westminster,http://courtauld.ac.uk/#,E09000033,Strand ,NA,NA,10033626384,St. James's,E05000644,530719.0001221001,180790.00012210011,-0.11610026775693322,51.510414396779126,11/27/2022
"Pertwee,  Anderson & Gold",City of Westminster,http://www.pertweeandersongold.com/#,E09000033,15 Bateman Street,NA,NA,10033628259,West End,E05000649,529700.0001221001,181102.00012210011,-0.130662674822863,51.51345342714121,11/27/2022
David Gill,City of Westminster,http://www.davidgillgallery.com/#,E09000033,2-4 King Street,NA,NA,10033629513,St. James's,E05000644,529396.0001221001,180294.00012210011,-0.13533824340533612,51.506261065872444,11/27/2022
Whitfield Fine Art,City of Westminster,http://www.whitfieldfineart.com/#,E09000033,1st floor,23 Dering Street,NA,10033630031,West End,E05000649,528778.0001221001,181111.00012210011,-0.14394044041696163,51.51374526727318,11/27/2022
Thomas Dane Gallery,City of Westminster,http://www.thomasdanegallery.com/#,E09000033,11 Duke Street,NA,NA,10033630669,St. James's,E05000644,529351.0001221001,180354.00012210011,-0.13596433530830604,51.50681063376936,11/27/2022
Victoria Miro Gallery II,City of Westminster,http://www.victoria-miro.com/#,E09000033,14 St George Street,NA,NA,10033631243,West End,E05000649,528912.0001221001,180963.00012210011,-0.14206434017023717,51.5123845141242,11/27/2022
Alison Jacques Gallery,City of Westminster,http://www.alisonjacquesgallery.com/,E09000033,16-18 Berners Street,NA,NA,10033631411,West End,E05000649,529391.0001221001,181485.00012210011,-0.13497306090260458,51.5169665877386,11/27/2022
Fold,City of Westminster,http://www.foldgallery.com/#,E09000033,158 New Cavendish Street,NA,NA,10033632030,West End,E05000649,529182.0001221001,181820.00012210011,-0.13786102743366002,51.520025317564546,11/27/2022
Annely Juda Fine Art,City of Westminster,http://www.annelyjudafineart.co.uk/#,E09000033,4th floor,23 Dering Street,NA,10033633944,West End,E05000649,528778.0001221001,181111.00012210011,-0.14394044041696163,51.51374526727318,11/27/2022
Gagosian Gallery 2,City of Westminster,http://www.gagosian.com/#,E09000033,17-19 Davies Street,NA,NA,10033634159,West End,E05000649,528633.0001221001,180751.00012210011,-0.1461605073182953,51.51054270647505,11/27/2022
Medici Gallery,Islington,http://www.medici.co.uk/,E09000019,"19-23 White Lion Street,",NA,NA,10090266504,Barnsbury,E05000366,531320.0001221001,183228.00012210011,-0.10653504356881591,51.53218668812738,11/27/2022
Guardian News & Media,Islington,http://www.guardian.co.uk/gnmexhibitions#,E09000019,"Kings Place, 90 York Way",NA,NA,10090266525,Caledonian,E05000368,530382.0001221001,183460.00012210011,-0.11996600884198419,51.534489245864684,11/27/2022
The Sunday Painter,Southwark,http://www.thesundaypainter.co.uk/#,E09000028,1st Floor,12-16 Blenheim Grove,NA,10090286666,Rye Lane,E05011113,534204.0001221001,176297.00012210011,-0.06761387003033917,51.46921688173556,11/27/2022
Beers London,Islington,http://beerslondon.com/#,E09000019,1 Baldwin Street,NA,NA,10090548970,Bunhill,E05000367,532670.0001221001,182630.00012210011,-0.08730670292879472,51.52649652768447,11/27/2022
Pangolin London,Islington,http://www.pangolinlondon.com/#,E09000019,90 York Way,NA,NA,10090550427,Caledonian,E05000368,530382.0001221001,183460.00012210011,-0.11996600884198419,51.534489245864684,11/27/2022
William Benington,Islington,http://williambeningtongallery.co.uk/#,E09000019,20 Arlington Way,NA,NA,10091004086,Clerkenwell,E05000370,531467.0001221001,182954.00012210011,-0.10451904810235907,51.52968988757034,11/27/2022
Maestro Arts,Wandsworth,http://www.maestroarts.com/#,E09000032,One Eastfields Avenue,NA,NA,10091499728,Thamesfield,E05000625,525271.0001221001,175194.00012210011,-0.19655898356880305,51.461351566416084,11/27/2022
Plus One Gallery,Wandsworth,http://www.plusonegallery.com/#,E09000032,89-91 Pimlico Road,NA,NA,10091504329,St. Mary's Park,E05000622,526186.0001221001,175359.00012210011,-0.18333454680238015,51.46263130841672,11/27/2022
Son Gallery,Southwark,http://cargocollective.com/songallery/About,E09000028,Unit 9C,133 Copeland Road,NA,10091666064,Rye Lane,E05011113,534443.5200805962,176333.92010499537,-0.06415312023793011,51.46949183012114,11/27/2022
ICN,Hackney,http://www.icn-global.com/#,E09000012,96-98 Leonard Street,NA,NA,10091782215,Hoxton East & Shoreditch,E05009377,533176.6000976935,182374.01007079333,-0.08010428676084,51.52407657261653,11/27/2022
Amstel Art Gallery,Lambeth,http://amstelart.com/#,E09000022,7 St George Wharf,NA,NA,10091846195,Oval,E05000426,530177.0001221001,177931.00012210011,-0.12496197677410778,51.484843750016246,11/27/2022
Pace London 1,City of Westminster,http://www.pacegallery.com/#,E09000033,6 Burlington Gardens,NA,NA,10091853844,West End,E05000649,529166.0001221001,180610.00012210011,-0.13853500649288014,51.509153820012614,11/27/2022
Pollock's Toy Museum,Camden,http://pollockstoys.com/#,E09000007,1 Scala Street,NA,NA,10091857645,Bloomsbury,E05000129,529471.0001221001,181805.00012210011,-0.1337030233566413,51.51982431997525,11/27/2022
Asia House,City of Westminster,http://asiahouse.org/#,E09000033,63 New Cavendish Street,NA,NA,10091858261,Marylebone High Street,E05000641,528714.0001221001,181716.00012210011,-0.14464135876177414,51.51919745124187,11/27/2022
Coningsby Gallery,Camden,https://www.coningsbygallery.com/#,E09000007,30 Tottenham Street,Fitzrovia,NA,10091859525,Bloomsbury,E05000129,529413.0001221001,181807.00012210011,-0.13453786957358443,51.519855589383596,11/27/2022
Blackhall Studios,Hackney,http://www.blackallstudios.com/#,E09000012,73 Leonard Street,NA,NA,10091941036,Hoxton East & Shoreditch,E05009377,533089.0001221001,182401.00012210011,-0.08135618234015408,51.524339797616655,11/27/2022
ASC Gallery,Southwark,http://www.ascstudios.co.uk/asc-gallery/#,E09000028,"Taplow House,",Thurlow Street,NA,10093339547,Faraday,E05011102,532940.0001221001,178336.00012210011,-0.08503552597389555,51.487840846108966,11/27/2022
Newport Street,Lambeth,http://www.newportstreetgallery.com/#,E09000022,3 Newport Street,NA,NA,10093376049,Prince's,E05000427,530818.0001221001,178845.8300780952,-0.11539545045936717,51.49291799249341,11/27/2022
Paul McPherson Gallery,Greenwich,http://www.paulmcgallery.com/#,E09000011,77 Lassell Street,NA,NA,100020981999,Peninsula,E05000225,539094.0001221001,178094.00012210011,0.003458820167393555,51.48418554558121,11/27/2022
Galleries Goldstein,Hackney,http://galleriesgoldstein.com/#,E09000012,"Goodhood, 20 Coronet Street",NA,NA,100021034288,Hoxton East & Shoreditch,E05009377,533127.0001221001,182666.00012210011,-0.08070853074370465,51.52671250554583,11/27/2022
Danielle Arnaud,Lambeth,http://www.daniellearnaud.com/#,E09000022,123 Kennington Road,NA,NA,100021856991,Prince's,E05000427,531267.0001221001,179010.00012210011,-0.108869726761932,51.49428940348491,11/27/2022
Caroline Wiseman,Lambeth,http://www.carolinewiseman.com/#,E09000022,26 Lansdowne Gardens,NA,NA,100021862472,Stockwell,E05000429,530211.0001221001,176955.00012210011,-0.12483242531893395,51.47606391091944,11/27/2022
Lisson Gallery 2,City of Westminster,http://www.lissongallery.com/#,E09000033,27 Bell St,Marylebone,NA,100022725884,Church Street,E05000634,527085.0001221001,181808.00012210011,-0.1680765344253281,51.52039325967289,11/27/2022
Rossi & Rossi,City of Westminster,http://www.rossirossi.com/#,E09000033,"21 Georgian House,",10 Bury Street,NA,100022730755,St. James's,E05000644,529309.0001221001,180295.00012210011,-0.13659087719640195,51.506289971202925,11/27/2022
Fiumano Fine Art,City of Westminster,http://www.fiumanofineart.com/#,E09000033,27 Connaught Street,NA,NA,100022738339,Hyde Park,E05000636,527392.0001221001,181096.00012210011,-0.1639109951573517,51.513924734146244,11/27/2022
Ambika P3,City of Westminster,http://www.p3exhibitions.com/#,E09000033,"Uni. of Westminster,",35 Marylebone Road,NA,100022779973,Marylebone High Street,E05000641,528128.0001221001,181959.00012210011,-0.15299519723381924,51.52151473981439,11/27/2022
CNB Gallery,Hackney,http://cnbgallery.com/#,E09000012,32 Rivington Street,NA,NA,100022932983,Hoxton East & Shoreditch,E05009377,533177.0001221001,182515.00012210011,-0.08004521442793121,51.525343614493224,11/27/2022
Red Gallery,Hackney,http://www.redgallerylondon.com/#,E09000012,3 Rivington Street,NA,NA,100022933139,Hoxton East & Shoreditch,E05009377,533063.0001221001,182547.00012210011,-0.08167562174492743,51.52565808914075,11/27/2022
Signal Gallery,Hackney,http://www.signalgallery.com/#,E09000012,32 Paul Street,NA,NA,100022933332,Hoxton East & Shoreditch,E05009377,533020.0001221001,182255.00012210011,-0.08240543879614387,51.52304389204014,11/27/2022
The Residence,Hackney,http://www.residence-gallery.com/#,E09000012,229 Victoria Park Road,NA,NA,100023024966,Victoria,E05009386,535740.0001221001,183971.00012210011,-0.0425572024129248,51.53781865874141,11/27/2022
The Sherlock Holmes Museum,City of Westminster,http://www.sherlock-holmes.co.uk/#,E09000033,239 (221b) Baker Street,NA,NA,100023071949,Bryanston and Dorset Square,E05000632,527847.0001221001,182144.00012210011,-0.15697650068780208,51.52324117330229,11/27/2022
Mercer Chance,Hackney,http://www.mercerchance.co.uk/#,E09000012,253 Hoxton Street,NA,NA,100023135423,Hoxton East & Shoreditch,E05009377,533230.0001221001,183409.00012210011,-0.07894334776582343,51.53336585007268,11/27/2022
Daniel Blau,Hackney,http://www.danielblau.com/#,E09000012,51 Hoxton Square,NA,NA,100023135514,Hoxton East & Shoreditch,E05009377,533171.1301269978,182661.59008789808,-0.08007436043025955,51.52666246370526,11/27/2022
Waterside Contemporary,Hackney,http://waterside-contemporary.com/#,E09000012,2 Clunbury Street,NA,NA,100023135532,Hoxton West,E05009378,532904.0001221001,183194.00012210011,-0.08372230408763107,51.53151040466705,11/27/2022
Standpoint,Hackney,http://www.standpointlondon.co.uk/#,E09000012,45 Coronet Street,Hoxton,NA,100023136399,Hoxton East & Shoreditch,E05009377,533160.0001221001,182650.00012210011,-0.08023910672947725,51.52656092496226,11/27/2022
Narenj Art Gallery,Haringey,http://www.narenj.co.uk/#,E09000014,94 Alexandra Park Road,NA,NA,100023143066,Alexandra,E05000266,529016.0001221001,190475.00012210011,-0.1370759832534233,51.59785152337649,11/27/2022
Highgate Contemporary Art,Haringey,http://www.highgateart.com/#,E09000014,26 Highgate High Street,NA,NA,100023196853,Highgate,E05000272,528556.0001221001,187377.00012210011,-0.14484899746657073,51.57011295456432,11/27/2022
Morley College Gallery,Lambeth,https://www.morleycollege.ac.uk/facilities/the-gallery#,E09000022,61 Westminster Bridge Road,NA,NA,100023225348,Bishop's,E05000416,531293.0001221001,179353.00012210011,-0.10836772791440058,51.49736611467718,11/27/2022
Gasworks Gallery,Lambeth,http://www.gasworks.org.uk/#,E09000022,155 Vauxhall Street,NA,NA,100023230142,Oval,E05000426,530949.0001221001,177926.00012210011,-0.11385059058357917,51.484620554801126,11/27/2022
Blackheath Gallery,Lewisham,http://www.blackheath-gallery.co.uk/#,E09000023,34a Tranquil Vale,NA,NA,100023267656,Blackheath,E05000438,539642.0001221001,176072.00012210011,0.010547456658418577,51.46587876556246,11/27/2022
Bearspace,Lewisham,http://www.bearspace.co.uk/#,E09000023,152 Deptford High Street,NA,NA,100023280386,Evelyn,E05000443,537186.0001221001,177463.00012210011,-0.024250769000243838,51.47898074962246,11/27/2022
Foss Fine Art,Wandsworth,http://fossfineart.com/#,E09000032,113b Northcote Road,NA,NA,100023304718,Northcote,E05000619,527570.0001221001,174718.00012210011,-0.16365171404298062,51.45655972891802,11/27/2022
Northcote Gallery Battersea,Wandsworth,http://www.northcotegallery.com/#,E09000032,110 Northcote Road,NA,NA,100023304739,Northcote,E05000619,527532.0001221001,174695.00012210011,-0.16420671081417998,51.45636156932846,11/27/2022
Kristin Hjellegjerde,Wandsworth,http://kristinhjellegjerde.com/#,E09000032,533 Old York Road,NA,NA,100023326939,Fairfield,E05000614,525925.0001221001,174982.00012210011,-0.18722435946285063,51.459300949041655,11/27/2022
John Adams Fine Art,City of Westminster,http://www.johnadamsfineart.com/#,E09000033,200 Ebury Street,NA,NA,100023346246,Churchill,E05000633,528314.0001221001,178508.00012210011,-0.1515712991806293,51.49045557183701,11/27/2022
Eleven,City of Westminster,http://www.elevenfineart.com/#,E09000033,11 Eccleston Street,NA,NA,100023346410,Warwick,E05000647,528663.0001221001,178892.00012210011,-0.1464065923819669,51.49382756965377,11/27/2022
The Osborne Studio Gallery,City of Westminster,http://www.osg.uk.com/#,E09000033,2 Motcomb Street,NA,NA,100023348455,Knightsbridge and Belgravia,E05000637,528052.0001221001,179418.00012210011,-0.155013172989838,51.49869392120635,11/27/2022
La Galleria,City of Westminster,http://www.lagalleria.org/#,E09000033,30 Royal Opera Arcade,Pall Mall,NA,100023349436,St. James's,E05000644,529743.0001221001,180406.00012210011,-0.13029944471317864,51.50718811425508,11/27/2022
GRAD,City of Westminster,http://www.grad-london.com/#,E09000033,3-4a Little Portland Street,NA,NA,100023466396,West End,E05000649,529107.0001221001,181473.00012210011,-0.1390686754534916,51.51692372609437,11/27/2022
Stephen Wiltshire Gallery,City of Westminster,http://www.stephenwiltshire.co.uk/london_gallery.aspx#,E09000033,5 Royal Opera Arcade,NA,NA,100023349482,St. James's,E05000644,529729.6600952,180405.51007079333,-0.1304917554156928,51.507186773015775,11/27/2022
Panter and Hall,City of Westminster,http://www.panterandhall.com/#,E09000033,27 Bury Street,NA,NA,100023349526,St. James's,E05000644,529647.0001221001,180340.00012210011,-0.13170635887492782,51.50661696225246,11/27/2022
Alan Cristea Gallery,City of Westminster,http://www.alancristea.com/#,E09000033,43 Pall Mall,NA,NA,100023349532,St. James's,E05000644,529449.0001221001,180219.00012210011,-0.13460245633982162,51.50557484603892,11/27/2022
Institute of Contemporary Arts - ICA,City of Westminster,http://www.ica.org.uk/#,E09000033,"The Mall, St. James's",NA,NA,100023349547,St. James's,E05000644,529801.0001221001,180264.00012210011,-0.12951637265332902,51.505898538901775,11/27/2022
Malcolm Fairley,City of Westminster,http://www.malcolmfairley.com/#,E09000033,40 Bury Street,NA,NA,100023349671,St. James's,E05000644,529309.0001221001,180247.00012210011,-0.13660848031719067,51.50585855979684,11/27/2022
Paisnel Gallery,City of Westminster,http://www.paisnelgallery.co.uk/#,E09000033,9 Bury Street,NA,NA,100023349896,St. James's,E05000644,529310.0001221001,180290.00012210011,-0.13657830857348474,51.506244803654916,11/27/2022
Sladmore,City of Westminster,http://www.sladmore.com/#,E09000033,57 Jermyn Street,NA,NA,100023349966,St. James's,E05000644,529212.0001221001,180399.00012210011,-0.1379497897010565,51.50724688773608,11/27/2022
Chris Beetles,City of Westminster,http://www.chrisbeetles.com/#,E09000033,8 & 10 Ryder Street,NA,NA,100023350002,St. James's,E05000644,529302.0001221001,180331.00012210011,-0.13667849149847366,51.50661513173621,11/27/2022
Photofusion Gallery,Lambeth,http://www.photofusion.org/photography-exhibitions/#,E09000022,17A Electric Ln,Brixton,NA,100023388443,Coldharbour,E05000420,531121.0001221001,175342.00012210011,-0.11233367988207232,51.46135657966503,11/27/2022
Brixton Art Gallery,Lambeth,http://www.brixtonartgallery.co.uk/#,E09000022,35 Brixton Station Road,NA,NA,100023388518,Coldharbour,E05000420,531172.0001221001,175560.00012210011,-0.11151899894153522,51.46330407422986,11/27/2022
Two Temple Place,City of Westminster,http://www.twotempleplace.org/#,E09000033,2 Temple Place,NA,NA,100023433098,St. James's,E05000644,531096.0001221001,180875.00012210011,-0.11063857030997987,51.511090982933304,11/27/2022
Atlas Gallery,City of Westminster,http://www.atlasgallery.com/#,E09000033,49 Dorset Street,NA,NA,100023460982,Marylebone High Street,E05000641,528081.0001221001,181677.00012210011,-0.15377485856525908,51.51899084146762,11/27/2022
Fashion Space Gallery,City of Westminster,http://www.fashionspacegallery.com/#,E09000033,London College of Fashion,20 John Princes St,NA,100023463131,West End,E05000649,528930.0001221001,181269.00012210011,-0.1416931224736202,51.51513065823631,11/27/2022
Hay Hill Gallery,City of Westminster,http://www.hayhillgallery.com/#,E09000033,35 Baker Street,NA,NA,100023463338,Marylebone High Street,E05000641,528048.6901244968,181503.87011719495,-0.1543032490549897,51.51744210876523,11/27/2022
A&D Gallery,City of Westminster,http://www.aanddgallery.com/#,E09000033,51 Chiltern Street,NA,NA,100023463458,Marylebone High Street,E05000641,528059.0001221001,181729.00012210011,-0.1540729006839933,51.5194631963648,11/27/2022
Hellenic Centre,City of Westminster,http://www.helleniccentre.org/#,E09000033,16-18 Paddington Street,NA,NA,100023464226,Marylebone High Street,E05000641,528201.0001221001,181842.00012210011,-0.15198604497254273,51.520446600044,11/27/2022
RIBA Architecture Gallery,City of Westminster,http://www.architecture.com/WhatsOn/Exhibitions/Exhibitions.aspx#,E09000033,66 Portland Place,NA,NA,100023466307,Marylebone High Street,E05000641,528805.0001221001,181898.00012210011,-0.14326383388172975,51.52081247441619,11/27/2022
Pi Artworks,City of Westminster,http://www.piartworks.com/#,E09000033,55 Eastcastle Street,NA,NA,100023466780,West End,E05000649,529286.0001221001,181364.00012210011,-0.1365300504637673,51.51590311850679,11/27/2022
Pilar Corrias,City of Westminster,http://www.pilarcorrias.com/#,E09000033,54 Eastcastle Street,NA,NA,100023466935,West End,E05000649,529280.0001221001,181363.00012210011,-0.1366168494066746,51.515895504144325,11/27/2022
Art First,City of Westminster,http://www.artfirst.co.uk/#,E09000033,21 Eastcastle Street,NA,NA,100023466981,West End,E05000649,529295.0001221001,181409.00012210011,-0.13638389166295387,51.5163055057999,11/27/2022
Nancy Victor,City of Westminster,http://www.nancyvictor.com/#,E09000033,6 Charlotte Pl,Fitzrovia,NA,100023467162,West End,E05000649,529421.0001221001,181633.00012210011,-0.1344865314133828,51.51828989511384,11/27/2022
Gallery Libby Sellers,City of Westminster,http://www.libbysellers.com/#,E09000033,41-42 Berners Street,NA,NA,100023467596,West End,E05000649,529313.0001221001,181565.00012210011,-0.1360673452072821,51.51770346904306,11/27/2022
Ronchini Gallery,City of Westminster,http://www.ronchinigallery.com/#,E09000033,22 Dering Street,NA,NA,100023470794,West End,E05000649,528778.0001221001,181111.00012210011,-0.14394044041696163,51.51374526727318,11/27/2022
Hauser & Wirth 1,City of Westminster,http://www.hauserwirth.com/#,E09000033,196A Piccadilly,NA,NA,100023470962,St. James's,E05000644,529366.0001221001,180513.00012210011,-0.13568995730121491,51.508236248690494,11/27/2022
Anthony Reynolds Gallery,City of Westminster,http://www.anthonyreynolds.com/#,E09000033,60 Great Marlborough Street,NA,NA,100023471398,West End,E05000649,529355.0001221001,181164.00012210011,-0.13560949211804027,51.514089776550776,11/27/2022
Flowers Gallery Central,City of Westminster,http://www.flowersgallery.com/#,E09000033,21 Cork Street,NA,NA,100023473240,West End,E05000649,529101.0001221001,180661.00012210011,-0.1394525403422776,51.50962705241822,11/27/2022
Erskine Hall & Coe,City of Westminster,http://www.erskinehallcoe.com/#,E09000033,15 Royal Arcade,28 Old Bond St,NA,100023473300,West End,E05000649,529060.0001221001,180542.00012210011,-0.14008664421780098,51.50856687792944,11/27/2022
David Zwimer,City of Westminster,http://www.davidzwirner.com/#,E09000033,24 Grafton Street,NA,NA,100023473310,West End,E05000649,528966.0001221001,180584.00012210011,-0.14142516864923177,51.50896582922516,11/27/2022
Colnaghi,City of Westminster,http://www.colnaghi.com/#,E09000033,15 Old Bond Street,NA,NA,100023473356,West End,E05000649,529136.0001221001,180542.00012210011,-0.1389920120175792,51.50854951146229,11/27/2022
Gazelli Art House,City of Westminster,http://gazelliarthouse.com/#,E09000033,39 Dover Street,NA,NA,100023473417,West End,E05000649,529012.0001221001,180457.00012210011,-0.14080909585551601,51.50781388172336,11/27/2022
Sprüth Magers,City of Westminster,http://www.spruethmagers.com/#,E09000033,7 Grafton Street,NA,NA,100023473419,West End,E05000649,528913.0001221001,180640.00012210011,-0.1421680606496922,51.50948123999344,11/27/2022
D-Contemporary,City of Westminster,http://dcontemporary.com/#,E09000033,23 Grafton Street,NA,NA,100023473421,West End,E05000649,528962.0001221001,180591.00012210011,-0.1414802207810889,51.50902965662085,11/27/2022
Erarta Galleries,City of Westminster,http://www.erartagalleries.com/london.html#,E09000033,8 Berkeley Street,NA,NA,100023473659,West End,E05000649,528993.0001221001,180410.00012210011,-0.14109994547659874,51.50739579537967,11/27/2022
Sladmore Contemporary,City of Westminster,http://www.sladmore.com/#,E09000033,32 Bruton Place,NA,NA,100023473811,West End,E05000649,528814.0001221001,180756.00012210011,-0.14355160726267174,51.51054640275796,11/27/2022
Lefevre Fine Art,City of Westminster,http://www.lefevrefineart.com/#,E09000033,31 Bruton Street,NA,NA,100023474091,West End,E05000649,528812.0001221001,180709.00012210011,-0.1435975890713662,51.51012443375787,11/27/2022
Sophia Contemporary,City of Westminster,http://sophiacontemporary.com/#,E09000033,11 Grosvenor Street,NA,NA,100023474136,West End,E05000649,528769.0001221001,180878.00012210011,-0.144155207226952,51.51165316961771,11/27/2022
The Fine Art Society,City of Westminster,http://faslondon.com/#,E09000033,148 New Bond Street,NA,NA,100023474398,West End,E05000649,528906.0001221001,180782.00012210011,-0.14221695846893087,51.51075909920249,11/27/2022
Gimpel Fils,City of Westminster,http://www.gimpelfils.com/#,E09000033,30 Davies Street,NA,NA,100023474837,West End,E05000649,528630.0001221001,180851.00012210011,-0.14616722752655967,51.511442167457304,11/27/2022
Gallery Elena Shchukina,City of Westminster,http://galleryelenashchukina.com/#,E09000033,10 Lees Place,NA,NA,100023475032,West End,E05000649,528170.0001221001,180861.00012210011,-0.15278945996237273,51.51163660116329,11/27/2022
Sadie Coles Gallery,City of Westminster,http://www.sadiecoles.com/#,E09000033,1 Davies Street,NA,NA,100023475710,West End,E05000649,528376.0001221001,180468.00012210011,-0.1499653292408947,51.508057619323786,11/27/2022
Hamiltons Gallery,City of Westminster,http://www.hamiltonsgallery.com/#,E09000033,13 Carlos Place,NA,NA,100023475924,West End,E05000649,528481.0001221001,180700.00012210011,-0.14836846539684823,51.51011891902267,11/27/2022
Galeries Bartoux,City of Westminster,http://www.galeries-bartoux.com/en/#,E09000033,104 New Bond Street,NA,NA,100023476528,West End,E05000649,528734.0001221001,181031.00012210011,-0.14460346903027113,51.51303627540015,11/27/2022
Salon Contemporary,City of Westminster,http://www.saloncontemporary.com/#,E09000033,82 Westbourne Grove,NA,NA,100023482451,Bayswater,E05000631,525464.0001221001,181151.00012210011,-0.1916644963815066,51.51485061059572,11/27/2022
Thomas & Paul,City of Westminster,http://www.thomasandpaul.com/#,E09000033,20 Bristol Gardens,NA,NA,100023513233,Little Venice,E05000639,525950.0001221001,182021.00012210011,-0.18435246848948278,51.52256197399729,11/27/2022
Greenwich Printmakers Gallery,Greenwich,http://www.greenwich-printmakers.org.uk/#,E09000011,1a Greenwich Market,NA,NA,100023537574,Greenwich West,E05000222,538338.0001221001,177703.00012210011,-0.007576419179712834,51.48085704947805,11/27/2022
The Invisible Line,Hackney,http://www.whitechapelgallery.org/first-thursdays/galleries/invisible-line-gallery/,E09000012,"87 Dalston Lane,",NA,NA,100023545364,Dalston,E05009370,533989.0001221001,184985.00012210011,-0.0674058630177291,51.5473502235191,11/27/2022
Fishbar,Hackney,http://fishbar.ph/#,E09000012,176 Dalston Lane,NA,NA,100023545393,Hackney Central,E05009372,534259.0001221001,185030.00012210011,-0.06349672607488344,51.54769046527718,11/27/2022
Rowing,Hackney,http://www.rowingprojects.com/#,E09000012,2 Leswin Place,NA,NA,100023546708,Stoke Newington,E05009385,533732.0001221001,186110.00012210011,-0.07068262263962571,51.55752194011246,11/27/2022
The Stone Space,Waltham Forest,http://www.thestonespace.com/#,E09000031,6 Church Lane,NA,NA,100023583897,Leytonstone,E05000605,539446.0001221001,187396.00012210011,0.012208448950943198,51.56769524439457,11/27/2022
ContiniArtUK,City of Westminster,http://www.continiartuk.com/#,E09000033,105 New Bond Street,NA,NA,100023608426,West End,E05000649,528740.0001221001,181022.00012210011,-0.1445203293581419,51.5129540180718,11/27/2022
Max Wigram Gallery,City of Westminster,http://www.maxwigram.com/#,E09000033,106 New Bond Street,NA,NA,100023608426,West End,E05000649,528740.0001221001,181022.00012210011,-0.1445203293581419,51.5129540180718,11/27/2022
Timothy Taylor Gallery,City of Westminster,http://www.timothytaylorgallery.com/#,E09000033,15 Carlos Place,NA,NA,100023616387,West End,E05000649,528487.0001221001,180697.00012210011,-0.14828313714108743,51.5100905910562,11/27/2022
Andor Gallery,Hackney,http://www.creativeandorcultural.com/#,E09000012,237 Hackney Road,NA,NA,100023649875,Haggerston,E05009375,533958.0001221001,183144.00012210011,-0.06855347132660816,51.53081190818558,11/27/2022
EXHIBIT at Golden Lane Estate,City and County of the City of London,http://www.exhibit-goldenlane.com/#,E09000001,20 Goswell Road,NA,NA,200000072012,Cripplegate,E05009302,532096.0001221001,182107.00012210011,-0.09577322767034234,51.5219306514311,11/27/2022
The Sassoon Gallery,Southwark,http://www.thesassoongallery.co.uk/#,E09000028,Arch 213 Blenheim Grove,Peckham,NA,200003492347,Rye Lane,E05011113,534139.8201293945,176268.25012210011,-0.06854833880284188,51.46897371325378,11/27/2022
Crypt Museum,City and County of the City of London,http://www.allhallowsbythetower.org.uk/visit/crypt/,E09000001,Byward Street,NA,NA,200000075582,Tower,E05009310,533395.0001221001,180682.00012210011,-0.07759820011277004,51.50881822633147,11/27/2022
Brocket Gallery,Lambeth,http://www.brocketgallery.com/#,E09000022,16 Windmill Row,NA,NA,200000468294,Oval,E05000426,531195.0001221001,178142.00012210011,-0.11022907826731713,51.48650486054455,11/27/2022
Orso Major Gallery,Lambeth,http://www.orsomajor.com/#,E09000022,19 Lower Marsh,NA,NA,200000471760,Bishop's,E05000416,531073.0001221001,179650.00012210011,-0.11142521396826433,51.500086500455005,11/27/2022
Man & Eve,Lambeth,http://www.manandeve.co.uk/#,E09000022,119-120 Lower Marsh,NA,NA,200000471832,Bishop's,E05000416,531061.0001221001,179673.00012210011,-0.11158946963980977,51.500295998715146,11/27/2022
Clapham Art Gallery,Lambeth,http://www.claphamartgallery.com/#,E09000022,Unit 02,40-48 Bromell’s Road,NA,200000520874,Clapham Town,E05000419,529425.0001221001,175385.00012210011,-0.1367202065292153,51.46213347432452,11/27/2022
Victoria Miro Gallery I,Hackney,http://www.victoria-miro.com/#,E09000012,16 Wharf Road,NA,NA,200002432213,Hoxton West,E05009378,532237.0401000977,182988.3500976935,-0.09341036603031562,51.529818761040865,11/27/2022
Old Royal Naval College,Greenwich,http://www.oldroyalnavalcollege.org/#,E09000011,2 Cutty Sark Gardens,NA,NA,200002800648,Greenwich West,E05000222,538360.6101073995,177870.3900756985,-0.0071853985177340535,51.48235586708259,11/27/2022
Bischoff/Weiss,City of Westminster,http://www.bischoffweiss.com/#,E09000033,14a Hay Hill,NA,NA,200002817730,West End,E05000649,528923.0001221001,180531.00012210011,-0.14206388814057905,51.508499292101526,11/27/2022
Borough Road Gallery,Southwark,http://www1.lsbu.ac.uk/w2/boroughroadgallery#,E09000028,103 Borough Road,NA,NA,200003353305,St. George's,E05011114,531860.3101195991,179459.68011479825,-0.10015903341352779,51.49819283865863,11/27/2022
Poppy Sebire,Southwark,http://www.poppysebire.com/#,E09000028,All Hallows Hall,6 Copperfield Street,NA,200003353342,Borough & Bankside,E05011095,532158.0001221001,179964.00012210011,-0.09568350394604495,51.50265590088561,11/27/2022
White Cube,Southwark,http://whitecube.com/#,E09000028,144-152 Bermondsey Street,NA,NA,200003362685,London Bridge & West Bermondsey,E05011104,533183.0001221001,179577.00012210011,-0.08106888393898747,51.49893710793588,11/27/2022
Flat Time House,Southwark,http://flattimeho.org.uk/#,E09000028,210 Bellenden Road,NA,NA,200003391772,Rye Lane,E05011113,533870.0001221001,175884.00012210011,-0.07257661524788013,51.46558418848394,11/27/2022
Arch Collective,Southwark,http://www.archcollective.co.uk/#,E09000028,Arch 12,Raymouth Road,NA,200003401561,North Bermondsey,E05011106,534826.0001221001,178805.00012210011,-0.05770571498702332,51.49160931563166,11/27/2022
South London Gallery,Southwark,http://www.southlondongallery.org/#,E09000028,65 Peckham Road,NA,NA,200003464154,St. Giles,E05011115,533458.0001221001,176784.00012210011,-0.07816495285733928,51.47377025501703,11/27/2022
Menier Gallery,Southwark,http://www.meniergallery.co.uk/#,E09000028,51 Southwark Street,NA,NA,200003495859,Borough & Bankside,E05011095,532367.0001221001,180132.00012210011,-0.09261067664714051,51.50411688554498,11/27/2022
Jerwood Space Gallery,Southwark,http://www.jerwoodspace.co.uk/#,E09000028,171 Union Street,NA,NA,200003496580,Borough & Bankside,E05011095,532031.0001221001,180010.00012210011,-0.09749518965423139,51.50309901521721,11/27/2022
Hannah Barry Gallery,Southwark,http://www.hannahbarry.com/#,E09000028,"Unit 9i, 133 Copeland Road",NA,NA,200003497923,Rye Lane,E05011113,534443.5200805962,176333.92010499537,-0.06415312023793011,51.46949183012114,11/27/2022
The Wapping Project Bankside,Southwark,http://thewappingprojectbankside.com/#,E09000028,65 Hopton Street,NA,NA,200003498823,Borough & Bankside,E05011095,531805.0001221001,180431.00012210011,-0.10059245354746495,51.506935535344816,11/27/2022
