name,address1,address2,borough_name,website,os_addressbase_uprn,borough_code,ward_2018_name,ward_2018_code,address3,longitude,latitude,easting,northing,runtime
Rose Theatre,24-26 High Street,,Kingston upon Thames,http://www.rosetheatrekingston.org,128029778,E09000021,Grove,E05000408,,-0.30759420135686405,51.40864310437742,517584.295137267,169204.2564966422,11/27/2022
Greenwich Theatre,3 Crooms Hill,,Greenwich,,10010200382,E09000011,Greenwich West,E05000222,,-0.007621807575506635,51.47946415067321,538226.8760123327,177602.30699869693,11/27/2022
Alexandra Palace,33 Alexandra Palace Way,,Haringey,http://www.alexandrapalace.com,10003974918,E09000014,Alexandra,E05000266,,-0.13050142940269552,51.59448347351189,529369.6876913166,190165.16346601653,11/27/2022
Apollo Victoria Theatre,17 Wilton Rd,,City of Westminster,http://www.apollovictoriatheatre.org/about-us/,100023340605,E09000033,Warwick,E05000647,,-0.14265442390651825,51.49577575884147,528806.8273760999,179169.36074308137,11/27/2022
The Arc Theatre,14 Austin Friars,,City and County of the City of London,http://www.arctheatre.com,95513019,E09000001,Broad Street,E05009295,,-0.08566234443244888,51.515929805308474,532703.2762608258,181512.00214289053,11/27/2022
Barbican Centre Theatre,1C Silk St,,City and County of the City of London,http://www.barbican.org.uk,95512045,E09000001,Cripplegate,E05009302,,-0.09410684626769471,51.51996230660304,532105.8421860349,181945.04630478157,11/27/2022
Barons Court Theatre,28a Comeragh Road,,Hammersmith and Fulham,http://www.offwestend.com/index.php/theatres/view/42,34128758,E09000013,North End,E05000258,,-0.20949081488484225,51.48943219347189,524185.82879858965,178348.4635537968,11/27/2022
Bloomsbury Theatre,15 Gordon Street,,Camden,https://www.doylecollection.com/hotels/the-bloomsbury-hotel?utm_source=google&utm_caÔÇª,5007085,E09000007,Bloomsbury,E05000129,,-0.13275478855025438,51.52506973057769,529410.749327312,182443.75552214705,11/27/2022
Brady Arts & Community Centre,192-196 Hanbury Street,,Tower Hamlets,http://www.towerhamletsarts.org.uk/?s=3&v=15&guide=AllAges,6011121,E09000030,Spitalfields & Banglatown,E05009333,,-0.06536854289329683,51.51941798875198,534100.7210158528,181936.81199790363,11/27/2022
Bread and Roses,68 Clapham Manor St,,Lambeth,https://www.breadandrosestheatre.co.uk,100021824058,E09000022,Clapham Town,E05000419,,-0.1365403514061712,51.465868049389755,529315.8125086711,175855.04662201047,11/27/2022
Broadway Theatre,1 Clockhouse Avenue,,Barking and Dagenham,http://www.thebroadwaybarking.com/sales,100058301,E09000002,Abbey,E05000026,,0.0780442418089448,51.53566930137261,543996.2882867429,184016.32482820883,11/27/2022
Cadogan Hall,5 Sloane Terrace,,Kensington and Chelsea,http://www.cadoganhall.com,217078765,E09000020,Royal Hospital,E05009403,,-0.15726787385942506,51.49386601372175,527798.0452933692,178931.39483932458,11/27/2022
Cambridge Theatre,31 Earlham St,,Camden,https://www.cambridgeartstheatre.com,5089373,E09000007,Holborn and Covent Garden,E05000138,,-0.12638182362667552,51.51351138572916,529885.6239657132,181169.99696127552,11/27/2022
Canal Cafe Theatre,13 Westbourne Terrace Rd,,City of Westminster,https://canalcafetheatre.com/contact,100022819209,E09000033,Westbourne,E05000648,,-0.18423636518372952,51.52103081817106,525851.5233817205,181904.8118052577,11/27/2022
Charing Cross Theatre,9 Villiers Street,,City of Westminster,http://www.charingcrosstheatre.co.uk,10033582545,E09000033,St. James's,E05000644,,-0.12409696345269702,51.508088217010574,530059.5750135697,180571.11041346058,11/27/2022
Palace Theatre,29 Greek St,,City of Westminster,,10033553103,E09000033,West End,E05000649,,-0.12962760222082897,51.51308656916242,529661.6725225626,181117.0037497292,11/27/2022
Eventim Apollo Hammersmith,45 Queen Caroline Street,,Hammersmith and Fulham,,34030384,E09000013,Hammersmith Broadway,E05000256,,-0.22442261589391588,51.490693338648484,523146.055735984,178463.4256042394,11/27/2022
Hampstead Theatre,62 Eton Avenue,,Camden,www.hampsteadtheatre.com,5134828,E09000007,Swiss Cottage,E05000144,,-0.1737092618893542,51.543825617142524,526518.4226660088,184457.34013969544,11/27/2022
ICA,Nash House,,City of Westminster,www.ica.art/venue-hire/,100023349637,E09000033,St. James's,E05000644,The Mall,-0.13089630811381464,51.50638922513244,529592.6737321757,180370.14269561012,11/27/2022
Islington Assembly Hall,?222 Upper Street,,Islington,,5300094897,E09000019,St. Mary's,E05000379,,-0.10361212675213433,51.54433219345228,531376.3407794111,184637.3515467053,11/27/2022
London Palladium,8 Argyll Street,,City of Westminster,http://www.reallyusefultheatres.co.uk/our-theatres/london-palladium/,10033529083,E09000033,West End,E05000649,,-0.1400173237240133,51.51453773280267,528936.8349926606,181259.96844256582,11/27/2022
Lost Theatre,208 Wandsworth Road,,Lambeth,http://www.losttheatre.co.uk,10023851231,E09000022,Stockwell,E05000429,,-0.13182128200627993,51.475523927124875,529616.0978661659,176936.92205954768,11/27/2022
Lyceum Theatre,21 Wellington Street,,City of Westminster,http://www.lyceum-theatre.co.uk,10033572107,E09000033,St. James's,E05000644,,-0.12011195511506426,51.51142367533286,530326.52281936,180949.043737809,11/27/2022
Millfield Arts Centre,303 Silver St,,Enfield,https://www.millfieldtheatre.co.uk,207015826,E09000010,Haselbury,E05000201,,-0.08021922443457952,51.61595446609569,532788.7220548978,192642.48454072129,11/27/2022
New Diorama Theatre,15-16 Triton Street,,Camden,,5155688,E09000007,Regent's Park,E05000142,,-0.1417518727550851,51.52503273106567,528786.8870747373,182423.74963554606,11/27/2022
Noel Coward Theatre,85-88 St Martin's Lane,,City of Westminster,,100023432653,E09000033,St. James's,E05000644,,-0.12746040471223158,51.51110956314006,529817.6341410202,180901.0460639245,11/27/2022
Park Theatre,13 Clifton Terrace,,Islington,https://www.parktheatre.co.uk,10090266645,E09000019,Finsbury Park,E05000371,,-0.10864188873866733,51.56563594094724,530966.3834227113,186996.86514007242,11/27/2022
Peacock Theatre,4 Portugal Street,,City of Westminster,http://peacocktheatre.com,100023430213,E09000033,St. James's,E05000644,,-0.11799105536213672,51.51462705698138,530464.4981347829,181308.97942267568,11/27/2022
Phoenix Theatre,110 Charing Cross Rd,,Camden,http://www.atgtickets.com/venues/phoenix-theatre/,5037592,E09000007,Holborn and Covent Garden,E05000138,,-0.12955427132150904,51.514524236099916,529662.6752697304,181276.97391381703,11/27/2022
Piccadilly Theatre,16 Denman Theatre,,City of Westminster,http://www.piccadillytheatre.org,100023472891,E09000033,West End,E05000649,,-0.1353745720757855,51.51105578198978,529268.7547672022,180881.0430587869,11/27/2022
Playhouse Theatre,10 Northumberland Avenue,,City of Westminster,http://www.playhousetheatrelondon.com/tickets/,100023432701,E09000033,St. James's,E05000644,,-0.1236819298437647,51.50696647949397,530091.5657340145,180447.1340540895,11/27/2022
The Queen's Theatre,59 Billet Lane,,Havering,http://www.queens-theatre.co.uk,100023213219,E09000016,St. Andrew's,E05000320,,0.2194442974728821,51.565210579829674,553700.1360083388,187588.64261193317,11/27/2022
Richmond Theatre,"15 Little Green,",,Richmond upon Thames,,10002264543,E09000027,South Richmond,E05000528,,-0.30384478130276277,51.46212984710516,517707.3417477044,175156.86857790558,11/27/2022
Roundhouse,100 Chalk Farm Road,,Camden,http://www.roundhouse.org.uk,5090672,E09000007,Camden Town with Primrose Hill,E05000130,,-0.15189860757857343,51.54323233753101,528032.0838188938,184429.3711192432,11/27/2022
Royal Opera House - The Linbury Studio Theatre and Foyer,35 Bow Street,,City of Westminster,http://www.roh.org.uk,10033547198,E09000033,St. James's,E05000644,,-0.1226537045637728,51.513047105890195,530145.5657065961,181125.00886241795,11/27/2022
Rudolf Steiner House,35 Park Road,,City of Westminster,http://www.rsh.anth.org.uk,200001772116,E09000033,Bryanston and Dorset Square,E05000632,,-0.1605557434657712,51.52489743109743,527483.1734869593,182375.7418978045,11/27/2022
Savoy Theatre,2 Savoy Court,,City of Westminster,http://www.savoytheatre.org,100023612110,E09000033,St. James's,E05000644,,-0.12086982981048652,51.51016784122517,530277.5312735734,180808.06910561485,11/27/2022
Shaftesbury Theatre,210 Shaftesbury Avenue,,Camden,http://www.shaftesburytheatre.com,5038488,E09000007,Holborn and Covent Garden,E05000138,,-0.1260953408279352,51.51627657115764,529897.626747536,181477.9399608883,11/27/2022
Shaw Theatre,100-110 Euston Road,,Camden,http://www.shaw-theatre.com,5083194,E09000007,St. Pancras and Somers Town,E05000143,,-0.12811024024435436,51.52864677124312,529722.6844269035,182849.68790303497,11/27/2022
Southwark Playhouse,77-85 Newington Causeway,,Southwark,http://www.southwarkplayhouse.co.uk,200003374411,E09000028,Chaucer,E05011098,,-0.09822409282459499,51.49750075305259,531885.1564449987,179440.34489017754,11/27/2022
The King's Head Theatre,115 Upper Street,,Islington,http://www.kingsheadtheatrepub.co.uk,5300094557,E09000019,St. Mary's,E05000379,,-0.10281017665850987,51.53830315585424,531449.316353261,183968.4886583889,11/27/2022
The Lion and Unicorn Theatre,42-44 Gaisford Street,,Camden,http://www.thelionandunicornnw5.co.uk,5082943,E09000007,Cantelowes,E05000131,,-0.13892271099645245,51.54809015069022,528917.8899181164,184992.28701134288,11/27/2022
The O2 Arena,Peninsula Square,,Greenwich,https://www.theo2.co.uk,10010228254,E09000011,Peninsula,E05000225,,0.003185639402138716,51.502920543654774,538905.7966629581,180230.6082976504,11/27/2022
The Phoenix Artists Club,1 Phoenix Street,,City of Westminster,http://www.phoenixartistclub.com,10033531800,E09000033,St. James's,E05000644,,-0.1286176073655147,51.50959926615894,529741.647763583,180731.07676467474,11/27/2022
The Rosemary Branch,2A Shepperton Road,,Islington,http://www.rosemarybranchtheatre.co.uk,5300082551,E09000019,Canonbury,E05000369,,-0.08693312001556831,51.537622409430384,532552.0804243142,183921.45322628593,11/27/2022
The Royal Albert Hall,9 Kensington Gore,,City of Westminster,https://www.royalalberthall.com,100023378047,E09000033,Knightsbridge and Belgravia,E05000637,,-0.17751558951229515,51.50126863054021,526372.3694292454,179719.22961387562,11/27/2022
The Scoop at More London,Queen's Walk,,Southwark,,10013532078,E09000028,London Bridge & West Bermondsey,E05011104,,-0.07925760856509012,51.505030063061604,533179.3433921003,180311.82198097336,11/27/2022
The Yard,2A QueenÔÇÖs Yard,,Tower Hamlets,https://theyardtheatre.co.uk,6077552,E09000030,Bow East,E05009319,,-0.02338244103278772,51.54263858650894,536943.130329375,184596.2730190672,11/27/2022
Theatre Royal Drury Lane,6 Catherine Street,,City of Westminster,http://www.reallyusefultheatres.co.uk/our-theatres/theatre-royal?utm_source=theatreroyalboxoffice.co.uk,10033555899,E09000033,St. James's,E05000644,,-0.12034041639956829,51.51287516912527,530306.5298853032,181110.01381163113,11/27/2022
White Bear Theatre,138 Kennington Park Road,,Lambeth,http://www.whitebearkennington.co.uk,100021856679,E09000022,Prince's,E05000427,,-0.10809969471258074,51.48690515526746,531230.3002841995,178244.57023873692,11/27/2022
Testbed 1,33 Parkgate Road,,Wandsworth,http://testbed1.com,100023587064,E09000032,St. Mary's Park,E05000622,,-0.1683291338545022,51.47883270856173,527072.2311306407,177240.7248418944,11/27/2022
The Other Palace,12 Palace Street,,City of Westminster,https://www.theotherpalace.co.uk,10033568019,E09000033,St. James's,E05000644,,-0.14226133584936457,51.4987101510302,528825.8273998916,179496.2986767295,11/27/2022
Winston Churchill Theatre,Manor Farm,,Hillingdon,http://www.hillingdontheatres.uk,100023034034,E09000017,Eastcote and East Ruislip,E05000329,,-0.4287435141039275,51.57894530296579,508754.24509050517,187951.3084545851,11/27/2022
Waterloo East Theatre,19 Brad Street,,Lambeth,http://www.waterlooeast.co.uk,10000445872,E09000022,Bishop's,E05000416,,-0.11001128800792538,51.50406715666158,531048.3500486832,180149.20195690187,11/27/2022
St John's Smith Square,St John's Smith Square,,City of Westminster,https://www.sjss.org.uk,10033557786,E09000033,St. James's,E05000644,,-0.12708978168890295,51.49590592702461,529886.5910777537,179211.36510143284,11/27/2022
St John's Church,Grove Ln,,Kingston upon Thames,http://www.stjohnskingston.co.uk,128008048,E09000021,Grove,E05000408,,-0.30075420721479335,51.403085419888846,518074.22863535,168597.34220355743,11/27/2022
Theatre Royal Haymarket,18 Suffolk Street,,City of Westminster,http://www.trh.co.uk,100023605397,E09000033,St. James's,E05000644,,-0.13127992874291025,51.5086345259202,529559.6856260736,180619.09549431433,11/27/2022
Church Hall of the Church of the Holy Apostles,47 Cumberland Street,,City of Westminster,http://www.holyapostlespimlico.org,10033527293,E09000033,Warwick,E05000647,,-0.14335521293078882,51.48845780264726,528778.8316447362,178354.5185452635,11/27/2022
The Gallery at The Hospital Club,24 Endell Street,,Camden,http://www.thehospitalclub.com,5109164,E09000007,Holborn and Covent Garden,E05000138,,-0.12455228800557874,51.514894009012494,530008.5995027998,181326.96956582635,11/27/2022
Freed of London,94 St Martins Lane,,City of Westminster,,10033553950,E09000033,St. James's,E05000644,,-0.12721960185642112,51.51065608198686,529835.6292735115,180851.05559518695,11/27/2022
"Asylum, Caroline Gardens Chapel",12 Asylum Road,,Southwark,http://maverickprojects.co.uk/asylum/weddings/,200003492048,E09000028,Old Kent Road,E05011109,,-0.060530333142687874,51.478933571378334,534555.5397641148,177444.71065362584,11/27/2022
Kings Place,90 York Way,,Islington,http://www.kingsplace.co.uk,10012790864,E09000019,Caledonian,E05000368,,-0.12154839713330298,51.534998685683775,530159.5944749595,183567.5667772116,11/27/2022
The Vaults,7AD Leake St,,Lambeth,https://www.thevaults.london,10091121720,E09000022,Bishop's,E05000416,,-0.11528547932908231,51.501974877728024,530688.3950573453,179907.14249395317,11/27/2022
The Old Selfridges Hotel,1 Orchard Street,,City of Westminster,http://www.selfridges.com/GB/en/content/tags/old-selfridges-hotel-0,100023459642,E09000033,Marylebone High Street,E05000641,,-0.15281377383990036,51.51458707028285,528049.0294065177,181242.96183764725,11/27/2022
Landmark Arts Centre,1 Cloister Close,,Richmond upon Thames,http://www.landmarkartscentre.org,10024344794,E09000027,Teddington,E05000530,,-0.32462690336409294,51.428086704633984,516350.5854177215,171338.7552636462,11/27/2022
The Bussey Building AKA The CLF Art Cafe,133 Rye Lane,,Southwark,https://www.clfartcafe.org,200003393120,E09000028,Rye Lane,E05011113,,-0.06736342452229606,51.46993399944465,534107.6002968203,176431.60842115624,11/27/2022
Adelphi Theatre,1 Heathcock Ct,,City of Westminster,http://www.reallyusefultheatres.co.uk/our-theatres/adelphi/,10033579363,E09000033,St. James's,E05000644,,-0.1229477601778272,51.510102191659634,530133.5627571249,180797.06934897078,11/27/2022
Apollo Theatre,31 Shaftesbury Avenue,,City of Westminster,https://www.nimaxtheatres.com/apollo-theatre/,10033548808,E09000033,West End,E05000649,,-0.1333819899148108,51.51150070427263,529405.7255764761,180934.03469707898,11/27/2022
Bridewell Theatre,14 Bride Ln,,City and County of the City of London,http://www.sbf.org.uk/theatre,95511225,E09000001,Castle Baynard,E05009297,,-0.10502349280047492,51.51349204783571,531367.2944332145,181206.01379450312,11/27/2022
Shakespeare's Globe Theatre,21 New Globe Walk,,Southwark,http://www.shakespearesglobe.com,,,,,,-0.09657156024934022,51.50811239465346,531969.1534819565,180623.12584075326,11/27/2022
Rich Mix,35-47 Bethnal Green Road,,Tower Hamlets,https://www.richmix.org.uk,6150258,E09000030,Weavers,E05009335,,-0.07327520292405387,51.52435933520294,533537.8487533755,182471.72356113477,11/27/2022
Putney Arts Theatre,16 Ravenna Road,,Wandsworth,http://www.putneyartstheatre.org.uk,100023314898,E09000032,East Putney,E05000613,,-0.22022303889633024,51.46128656856928,523517.04018955294,175201.03397316666,11/27/2022
"Michaelis Theatre, Roehampton University",85 Roehampton Lane,,Wandsworth,,10033238647,E09000032,Roehampton and Putney Heath,E05000621,,-0.24726950659856095,51.456100388825426,521652.4839028856,174579.0951271059,11/27/2022
Dragon Hall ,17 Stukeley Street,,Camden,https://www.dragonhall.org.uk/main-hall/,5128852,E09000007,Holborn and Covent Garden,E05000138,,-0.12266501275798312,51.516626397453685,530134.5747535961,181522.9352386092,11/27/2022
Westminster Kingsway College Theatre,211 Gray's Inn Road,,Camden,http://www.westking.ac.uk/subject/performing-arts/,5155126,E09000007,King's Cross,E05000141,,-0.11876765409847068,51.52690563025228,530375.5351019538,182672.73149009288,11/27/2022
Poplar Union,2 Cotall St,,Tower Hamlets,https://poplarunion.com,6194894,E09000030,Lansbury,E05009325,,-0.022982609701648768,51.515599733128866,537052.0760375387,181590.9115676905,11/27/2022
"The Pit, Barbican Centre",1C Silk St,,City and County of the City of London,http://www.barbican.org.uk/theatre,95512046,E09000001,Cripplegate,E05009302,,-0.09410454151200137,51.519962269135135,532106.0021516739,181945.0463015925,11/27/2022
Soho Theatre,21 Dean Street,,City of Westminster,http://www.sohotheatre.com,100023472522,E09000033,West End,E05000649,,-0.13274033925666415,51.51450305314165,529441.7240242634,181268.9723855179,11/27/2022
Danceworks,"16 Balderton Street,",,City of Westminster,http://danceworks.net,100023474423,E09000033,West End,E05000649,,-0.15245246485470965,51.513187512956634,528078.0201306919,181087.99136321066,11/27/2022
Wilton's Music Hall,1 Graces Alley,,Tower Hamlets,http://www.wiltons.org.uk,6006845,E09000030,Whitechapel,E05009336,,-0.06693794829680935,51.51061305202626,534017.7196860514,180955.02048521588,11/27/2022
Chicken Shed,290 Chase Side,,Enfield,http://www.chickenshed.org.uk,207078080,E09000010,Cockfosters,E05000196,,-0.1452419252578886,51.64443614308683,528208.0088384338,195692.88667051832,11/27/2022
Electric Brixton,Town Hall Parade,,Lambeth,http://electricbrixton.uk.com,200000455751,E09000022,Brixton Hill,E05000417,,-0.11683360475708353,51.46019347340544,530700.5207952466,175259.17251036473,11/27/2022
Hackney Empire,291 Mare Street,,Hackney,https://hackneyempire.co.uk/hire/spaces/,100023014084,E09000012,Hackney Central,E05009372,,-0.05547786117844201,51.54552161556345,534709.5963479362,184857.10980894725,11/27/2022
ACS Dance Centre,66 Albert Rd,,Havering,http://www.anthonycliffordstudios.co.uk,100023211192,E09000016,Romford Town,E05000319,,0.1899065102180928,51.573604486378414,551625.6230400902,188460.14463760133,11/27/2022
Landor Theatre,70 Landor Pub,,Lambeth,http://www.thelandorpub.com,100021861916,E09000022,Larkhall,E05000425,,-0.126053012785492,51.46566493006136,530044.6534394952,175851.0550070273,11/27/2022
The Saw Swee Hock Centre - Weston Studio,1 Portugal Street,,City of Westminster,https://sawsweehockcentre.com,10033621876,E09000033,St. James's,E05000644,,-0.11757262192671056,51.51463832894062,530493.4916933503,181310.9795169924,11/27/2022
London Metropolitan University Graduate Centre,182-198 Holloway Rd,,Islington,http://www.londonmet.ac.uk/contact-us/how-to-find-us/tower-building/graduate-centre/,5300047823,E09000019,Highbury West,E05000373,,-0.11035420323320108,51.55147327374649,530888.4504749835,185419.20454365067,11/27/2022
Kenneth More Theatre,Kenneth More Road,,Redbridge,www.kmtheatre.co.uk/hire-us/,100023043000,E09000026,Ilford Town,E05011246,,0.07524058428155188,51.55867744085837,543729.2793140266,186568.74885696132,11/27/2022
Pinner Village Hall,11 Chapel Lane,,Harrow,https://www.pinnervillagehall.org.uk,200000320298,E09000015,Pinner South,E05000298,,-0.384014347429379,51.59325662585529,511817.562565395,189610.10382156254,11/27/2022
The Space,269 West Ferry Road,,Tower Hamlets,http://www.space.org.uk,6060149,E09000030,Island Gardens,E05009324,,-0.024198972590448294,51.49216667255609,537038.0064163918,178983.36308824475,11/27/2022
Lift Islington - Platform Theatre,2 Tiltman Place,,Islington,http://www.platformislington.org.uk,10012794343,E09000019,Finsbury Park,E05000371,,-0.1157416039179951,51.5614248705854,530486.5257491982,186515.99107545655,11/27/2022
Etcetera Theatre,265 Camden High Street,,Camden,http://www.etceteratheatre.com,5007472,E09000007,Camden Town with Primrose Hill,E05000130,,-0.14427595699830242,51.54059408718844,528567.9596401856,184149.43237074,11/27/2022
Royal Academy of Dramatic Art,16-22 Chenies Street,,Camden,https://www.rada.ac.uk,5136140,E09000007,Bloomsbury,E05000129,,-0.13226278954051948,51.520889276612664,529456.7322331958,181979.84128695092,11/27/2022
Tristan Bates Theatre (TBT),1a Tower Street,,Camden,https://www.tristanbatestheatre.co.uk,5077305,E09000007,Holborn and Covent Garden,E05000138,,-0.12830478490353764,51.513362229693506,529752.6530142582,181149.99884691846,11/27/2022
Watermans Arts Centre,40 High Stree,,Hounslow,https://www.watermans.org.uk,100023407377,E09000018,Brentford,E05000347,,-0.29804237060391664,51.485768357508256,518049.17845020886,177794.40794052195,11/27/2022
New Wimbledon Theatre,93 The Broadway,,Merton,http://newwimbledontheatre.net,48008413,E09000024,Abbey,E05000455,,-0.2013651086568275,51.4191464411273,524941.8232362485,170547.90055142756,11/27/2022
Sadler's Wells Theatre,177 Rosebery Ave,,Islington,http://www.sadlerswells.com,5300080047,E09000019,Clerkenwell,E05000370,,-0.1062646136474187,51.52942925041774,531235.3477497051,182975.6838956953,11/27/2022
Uxbridge College,34 College Way,,Hillingdon,https://www.uxbridge.ac.uk,10003002623,E09000017,Townfield,E05000339,,-0.41143005716239356,51.51627879992962,510104.8735091651,181009.75590109418,11/27/2022
Unicorn Theatre,147 Tooley Street,,Southwark,unicorn theatre,10009804074,E09000028,London Bridge & West Bermondsey,E05011104,,-0.08063989503420484,51.50384192911409,533086.9005339423,180177.21196973388,11/27/2022
The Gate Theatre,11 Pembridge Road,,Kensington and Chelsea,https://www.gatetheatre.co.uk/?spektrix_bounce=true,217065685,E09000020,Pembridge,E05009400,,-0.19766381903472255,51.50952947222264,524951.6968687112,180603.0460506056,11/27/2022
London Dance Academy,51 Central Street,,Islington,http://londondanceacademy.co.uk,5300017733,E09000019,Bunhill,E05000367,,-0.09662222324864979,51.5255591465995,531915.192546338,182562.76120298408,11/27/2022
Hoxton Hall,130 Hoxton Street,,Hackney,www.hoxtonhall.co.uk/category/hire/,100023135707,E09000012,Hoxton East & Shoreditch,E05009377,,-0.07998379986653217,51.53177145307153,533050.9666857935,183283.56878781872,11/27/2022
Arcola,24 Ashwin Street,,Hackney,http://www.arcolatheatre.com,10008321023,E09000012,Dalston,E05009370,,-0.0749473466957685,51.54691315471493,533355.8920249861,184976.146726495,11/27/2022
Bhavan Centre,4a Castletown Road,,Hammersmith and Fulham,http://www.bhavan.net,34140084,E09000013,North End,E05000258,,-0.20704343271466347,51.4897635033675,524354.7917425205,178389.45781044482,11/27/2022
The Tabard Theatre,2 Bath Road,,Hounslow,http://www.tabardtheatre.co.uk,200002818754,E09000018,Chiswick Homefields,E05000348,,-0.2546414211946523,51.49569248973641,521035.460042817,178968.76989342878,11/27/2022
Chisenhale Dance Space,64-84 Chisenhale Road,,Tower Hamlets,http://www.chisenhaledancespace.co.uk,6719953,E09000030,Bow West,E05009320,London,-0.03970815386188454,51.533088028168955,535839.8205948127,183503.96750822215,11/27/2022
Polka Theatre for Children,240 The Broadway,,Merton,https://polkatheatre.com/home/about-us/contact-us/,48008566,E09000024,Trinity,E05000471,,-0.19497580578680376,51.41973108424873,525384.365001612,170623.828719744,11/27/2022
Studio Wayne McGregor,14 East Bay lane,,Hackney,http://waynemcgregor.com,10008348301,E09000012,Hackney Wick,E05009374,,-0.02406695893096881,51.54744384582722,536881.2423369922,185129.2283676379,11/27/2022
Stratford Circus,Theatre Square,,Newham,https://stratford-circus.com,10008996899,E09000025,Stratford and New Town,E05000492,,0.0017436141571047386,51.542716602881285,538684.7104558783,184652.34545708826,11/27/2022
Clean Break,2 Patshull Road,,Camden,http://www.cleanbreak.org.uk,5001418,E09000007,Cantelowes,E05000131,,-0.14067230087363894,51.54692185614953,528799.9150585484,184859.3086025286,11/27/2022
West London University,St Mary's Rd,,Ealing,http://www.uwl.ac.uk,12153715,E09000009,Ealing Common,E05000174,,-0.30468838817849886,51.50656546830447,517534.3111323564,180095.9682687649,11/27/2022
Brentside,377 Greenford Avenue,,Ealing,http://www.brentsidehigh.ealing.sch.uk,12141082,E09000009,Hobbayne,E05000180,,-0.33995692960790874,51.52655631417004,515036.92637248,182262.47095681867,11/27/2022
Union Theatre,204 Union Street,,Southwark,https://www.unicorntheatre.com,200003354927,E09000028,Borough & Bankside,E05011095,,-0.1019116971531961,51.50375650771803,531611.2258208988,180129.21309753053,11/27/2022
Harrow Arts Centre,171 Uxbridge Road,,Harrow,,200000319916,E09000015,Hatch End,E05000291,,-0.3638031612556714,51.60848854476744,513179.3026930188,191334.81759205525,11/27/2022
The Young Vic,66 The Cut,,Lambeth,https://www.youngvic.org,100023226258,E09000022,Bishop's,E05000416,,-0.10729184890900656,51.50327690512558,531239.3067050535,180066.21983987192,11/27/2022
"The Old Church , Stoke Newington",207B Church Street,,Hackney,http://theoldchurch.org.uk,100021076029,E09000012,Clissold,E05009369,,-0.08488074761027248,51.560412014527095,532627.9924001843,186458.881108077,11/27/2022
Oxford House Theatre,87 Derbyshire Street,,Tower Hamlets,http://www.oxfordhouse.org.uk,6089004,E09000030,St. Peter's,E05009331,,-0.06148404706213619,51.526368052162184,534349.6853817301,182716.6300953008,11/27/2022
Churchill Theatre: Magpie Dance,118 High Street,,Bromley,http://www.magpiedance.org.uk,100022886981,E09000006,Bromley Town,E05000109,,0.01447424710333657,51.403764998095454,539992.2625834523,169228.39725823456,11/27/2022
Higham Hill Hub,Higham Hill Park,Hecham Close,Waltham Forest,http://highamhillhub.org.uk,10091185782,E09000031,Higham Hill,E05000600,,-0.03758074921719074,51.59712881551122,535796.0799918036,190627.8208149533,11/27/2022
Dance Umbrella - Somerset House,150 Strand,,City of Westminster,http://www.danceumbrella.co.uk,100023432985,E09000033,St. James's,E05000644,,-0.11795241539614258,51.51102034296919,530477.4888557736,180908.05325086968,11/27/2022
Harris Academy Purley,Kendra Hall Road,,Croydon,http://www.harrispurley.org.uk,100022910696,E09000008,Purley Oaks & Riddlesdown,E05011477,,-0.1093161602539145,51.35324715448375,531529.4222823388,163382.67538138083,11/27/2022
Candoco Dance Company,2 Wood Lane,,Harrow,http://www.candoco.co.uk,10070269989,E09000015,Canons,E05000286,,-0.31023884034235716,51.63024680136543,516831.48248720623,193838.37832748814,11/27/2022
Bernie Grant Arts Centre,Town Hall Approach,,Haringey,http://www.berniegrantcentre.co.uk,10003985252,E09000014,Tottenham Green,E05000280,,-0.07307594316383177,51.587475025787676,533366.6441101524,189489.18429012678,11/27/2022
Arts Theatre,6-7 Great Newport Street,,City of Westminster,https://artstheatrewestend.co.uk,100023431531,E09000033,St. James's,E05000644,,-0.12754873375281953,51.512118159354976,529808.638152995,181013.02510737855,11/27/2022
Conway Hall,25 Red Lion Square,,Camden,https://conwayhall.org.uk,5048256,E09000007,Holborn and Covent Garden,E05000138,,-0.11831129435993613,51.51979403551024,530427.5139842695,181882.87452839903,11/27/2022
"Compass Theatre, Hillingdon",45 Glebe Ave,,Hillingdon,http://www.hillingdontheatres.uk,100023413466,E09000017,Ickenham,E05000333,,-0.4403867392342893,51.56218624220662,507987.44954308216,186070.69796096173,11/27/2022
The Broadway Theatre,34 Catford Broadway,,Lewisham,https://www.broadwaytheatre.org.uk,10023226829,E09000023,Rushey Green,E05000451,,-0.020380851387899346,51.44529430145055,537443.8620802534,173779.36540194403,11/27/2022
The Tramshed,51-53 Woolwich New Road,,Greenwich,http://www.glypt.co.uk/tramshed/tramshedhistory/,100023246054,E09000011,Woolwich Common,E05000229,,0.0680210852899668,51.48949713383379,543446.4500886544,178863.3803113274,11/27/2022
Dominion Theatre,268-269 Tottenham Court Rd,,Camden,https://www.nederlander.co.uk/dominion-theatre,5083050,E09000007,Bloomsbury,E05000129,,-0.12964170316447235,51.51696265822975,529649.6829105526,181547.92336695764,11/27/2022
Pleasance,41 North Mews,,Islington,https://www.pleasance.co.uk,10094608227,E09000019,Holloway,E05000375,,-0.121673379465882,51.54876851276606,530111.6228379998,185098.28363759606,11/27/2022
Trinity Laban / Laban Theatre,71 Creekside,,Lewisham,https://www.trinitylaban.ac.uk/whats-on/dance-events,,,,,,-0.020503156279156446,51.48005383168382,537330.8960859162,177643.60596698715,11/27/2022
Patidar House Studios,22 London Road,,Brent,,202073653,E09000005,Wembley Central,E05000104,,-0.29498259917589753,51.5522954835727,518089.2528245654,185195.99128263525,11/27/2022
Foulden Works,30 Foulden Road,,Hackney,https://fouldenworks.wordpress.com,100023159914,E09000012,Stoke Newington,E05009385,,-0.07239187829974293,51.55551305271173,533507.8040361435,185936.93184311478,11/27/2022
Shoreditch Town Hall,380 Old Street,,Hackney,http://shoreditchtownhall.com/event-space-hire/venue-specification/large-committee-room,100022930896,E09000012,Hoxton East & Shoreditch,E05009377,,-0.07910261270487973,51.52667618511525,533126.93925172,182718.688023185,11/27/2022
Greenwich Dance,33-35 Royal Hill,,Greenwich,www.greenwichdance.org.uk,100023227774,E09000011,Greenwich West,E05000222,,-0.010739099717940903,51.47806301570587,538014.7092924543,177440.64501393418,11/27/2022
Brockley Jack Studio Theatre,410 Brockley Road,,Lewisham,http://www.brockleyjack.co.uk,100021937756,E09000023,Crofton Park,E05000441,,-0.03907693467554407,51.45363917833209,536120.1670288991,174672.18018634897,11/27/2022
Old Red Lion,418 St John Street,,Islington,,5300085363,E09000019,Bunhill,E05000367,,-0.10584777886832213,51.53148185041091,531258.3460945036,183204.64045713365,11/27/2022
"King Charles Court, Old Royal Naval College (Trinity Laban)",King William Walk,,Greenwich,https://www.trinitylaban.ac.uk/whats-on/our-venues/king-charles-court,10010216996,E09000011,Greenwich West,E05000222,,-0.00717147166226471,51.483587017337925,538245.6681657546,178061.5277673204,11/27/2022
Toynbee Studios,28 Commercial Street,,Tower Hamlets,http://www.toynbeehall.org.uk,6722403,E09000030,Spitalfields & Banglatown,E05009333,,-0.07223015380506652,51.51668037281242,533632.8129262736,181619.89620034263,11/27/2022
Cecil Sharp House,2 Regent's Park Road,Cecil Sharp House,Camden,https://www.cecilsharphouse.org,5066674,E09000007,Camden Town with Primrose Hill,E05000130,,-0.14933786642370842,51.53810211945751,528224.0333264099,183863.47739305237,11/27/2022
Half Moon Young People's Theatre,43 White Horse Road,,Tower Hamlets,http://www.halfmoon.org.uk,6044554,E09000030,St. Dunstan's,E05009329,,-0.04121519746678603,51.513252692179016,535794.3437658597,181295.9402879554,11/27/2022
Graeae Theatre Company Bradbury Studios,138 Kinglsand Road,,Hackney,www.graeae.org/,10008323888,E09000012,Haggerston,E05009375,,-0.07681170573831783,51.53279852462418,533267.9249567887,183403.52684749698,11/27/2022
Cockpit Theatre,5 Gateforth Street,,City of Westminster,http://www.thecockpit.org.uk,100023121790,E09000033,Church Street,E05000634,,-0.16948081854492578,51.52449747786599,526865.3080233635,182315.74619611359,11/27/2022
Menier Theatre,51-53 Southwark Street,,Southwark,https://www.menierchocolatefactory.com/Online/default.asp,200003500280,E09000028,Borough & Bankside,E05011095,,-0.09446755392874248,51.504660977562715,532125.1134595063,180243.19766681956,11/27/2022
Leyden Sixth form College,Leyton Sixth Form College,,Waltham Forest,http://www.leyton.ac.uk,200001430246,E09000031,Forest,E05000595,,-0.002867702336306994,51.576067609955494,538263.7410843594,188351.4664856097,11/27/2022
Lyric Theatre,29 Shaftesbury Avenue,,City of Westminster,https://www.nimaxtheatres.com/lyric-theatre/,100023472887,E09000033,West End,E05000649,,-0.13379480936188423,51.511273462083025,529377.7312576249,180908.03923815407,11/27/2022
Jacksons Lane,269A Archway Road,,Haringey,www.jacksonslane.org.uk/space-hire,100023196841,E09000014,Highgate,E05000272,,-0.1454041617417178,51.57668107136611,528387.9775686603,188159.60351250193,11/27/2022
Arts Depot,5 Nether Street,,Barnet,http://www.artsdepot.co.uk,200196017,E09000003,West Finchley,E05000061,,-0.17669950896364456,51.61281643920563,526119.8024075672,192122.6153572988,11/27/2022
RADA Studios,16 Chenies St,,Camden,,5087921,E09000007,Bloomsbury,E05000129,,-0.13256009012442388,51.52066919126147,529436.7362890391,181954.8455699953,11/27/2022
Blackheath Halls,23 Lee Road,,Greenwich,http://www.blackheathhalls.com,100023269695,E09000011,Blackheath Westcombe,E05000215,,0.009627334448283693,51.464379413335784,539470.3121443274,175957.98717805138,11/27/2022
Langley Park Centre for the Performing Arts - Bromley Hall,S Eden Park Rd,,Bromley,http://www.lpsb.org.uk,100022894311,E09000006,Kelsey and Eden Park,E05000120,,-0.01894750975679238,51.38893000520387,537712.9444351302,167515.74804962554,11/27/2022
Intimate Theatre,516 Green Lanes,,Enfield,http://www.smptheatre.co.uk/faqs/the-intimate-theatre/,207035876,E09000010,Winchmore Hill,E05000213,,-0.10284236026466753,51.62419102036944,531199.1709811597,193517.35336031078,11/27/2022
"Theatre Royal, Stratford East",Gerry Raffles Square,,Newham,http://www.stratfordeast.com/whats-on/,10009003230,E09000025,Stratford and New Town,E05000492,,0.0010008812952531942,51.54255806288698,538633.7047774503,184633.3104615531,11/27/2022
Fairfield Hall (closed for refurbishment),71 Park Lane,,Croydon,https://fairfield.co.uk,,,,,,-0.09577807383074295,51.3725243869017,532416.1482631542,165550.2287229956,11/27/2022
Newlands Community Hall,226 Stroud Crescent,,Wandsworth,http://www.wandsworth.gov.uk/directory_record/148179/newlands_hall_putney_vale_clubroom/category/1125/clubrooms,100023313548,E09000032,Roehampton and Putney Heath,E05000621,,-0.24437634768680497,51.438080676056806,521901.4875408432,172580.46083167935,11/27/2022
Aldwych Theatre,49 Aldwych,,City of Westminster,https://www.nederlander.co.uk/aldwych-theatre,100023430368,E09000033,St. James's,E05000644,,-0.118862085089603,51.51307628957086,530408.5077589361,181135.01059039537,11/27/2022
Welsh Centre,157-163 GrayÔÇÖs Inn Road,,Camden,http://www.londonwelsh.org,5083639,E09000007,King's Cross,E05000141,,-0.11690282324089822,51.52493327731929,530510.5020471851,182456.77227326354,11/27/2022
Rambert,99 Upper Ground,,Lambeth,http://www.rambert.org.uk,100023226975,E09000022,Bishop's,E05000416,,-0.11352326943298152,51.5061740428866,530798.6389797542,180377.15601985605,11/27/2022
Theatre Peckham,221 Havil Street,,Southwark,https://www.theatrepeckham.co.uk,10093342877,E09000028,St. Giles,E05011115,,-0.0827585908476541,51.47449518638107,533025.3657666997,176910.62115935306,11/27/2022
Mountview Theatre School,120 Peckham Hill Street,,Southwark,https://www.mountview.org.uk,10094742520,E09000028,Peckham,E05011110,,-0.06987725571183873,51.47487429992848,533918.5706031593,176976.2626903809,11/27/2022
Siobhan Davies Studios,85 St GeorgeÔÇÖs Road,,Southwark,http://www.siobhandavies.com,10009805291,E09000028,St. George's,E05011114,,-0.10532906367427461,51.49605999784297,531396.2614309487,179267.3718267458,11/27/2022
Canada Water Culture Space,21 Surrey Quays Road,,Southwark,http://canadawaterculturespace.org.uk/contact-us,10090284129,E09000028,Rotherhithe,E05011112,,-0.04915361053641707,51.49780959239352,535289.4125404668,179564.2989557215,11/27/2022
National Circus,9 Coronet St,,Hackney,http://www.nationalcircus.org.uk,100023135619,E09000012,Hoxton East & Shoreditch,E05009377,,-0.08255020363839739,51.52755808546938,532885.281311353,182810.4699100285,11/27/2022
Upstairs at the Gatehouse,1 North Road,,Haringey,http://www.upstairsatthegatehouse.com,100023194241,E09000014,Highgate,E05000272,,-0.1503651244053542,51.5717955026533,528058.0602660807,187607.7169495119,11/27/2022
Omnibus Arts Centre,1 Northside Clapham Common,,Lambeth,http://omnibus-clapham.org,100023362765,E09000022,Clapham Town,E05000419,,-0.14241370760161176,51.46375803853589,528913.9104113508,175610.09278761758,11/27/2022
Camden People's Theatre,58-60 Hampstead Road,,Camden,https://www.cptheatre.co.uk,5158137,E09000007,Regent's Park,E05000142,,-0.13842362408321568,51.52640081348196,529013.8391823107,182581.72412901575,11/27/2022
Theatre Utopia,1 Matthews Yard,,Croydon,http://www.matthewsyard.com/venue/theatre-utopia/,10090382144,E09000008,Fairfield,E05011468,,-0.10109493638912355,51.372161063868425,532047.230527503,165500.23737080558,11/27/2022
Tricycle Theatre,269 Kilburn High Road,,Brent,http://www.tricycle.co.uk,202079064,E09000005,Kilburn,E05000094,,-0.20000599073152175,51.54331474177344,524696.8274428069,184355.33923497627,11/27/2022
Lilian Baylis Studio,183 Rosebery Avenue,,Islington,http://www.sadlerswells.com/venue-hire/lilian-baylis-studio/,5300080050,E09000019,Clerkenwell,E05000370,,-0.10587919015184069,51.529683816032346,531261.342431507,183004.67853260704,11/27/2022
Flow Dance London,1-3 Brixton Rd,Unit 3,Lambeth,https://flowdance-london.co.uk,10090196810,E09000022,Vassall,E05000436,,-0.10954604491438824,51.48048970371461,531148.3391200036,177528.71608946746,11/27/2022
The Place Theatre,17 Dukes Road,,Camden,http://www.theplace.org.uk,5156460,E09000007,King's Cross,E05000141,London,-0.12840199489824095,51.52750934818446,529705.6866684856,182722.710441205,11/27/2022
Trafalgar Studios (previously the Whitehall),14 Whitehall,,City of Westminster,http://trafalgarentertainment.com,100023336992,E09000033,St. James's,E05000644,,-0.12761518534783856,51.506633653228675,529819.6245676598,180403.13914411404,11/27/2022
Albany Centre and Theatre,1A Douglas Way,,Lewisham,http://www.thealbany.org.uk,100023280749,E09000023,New Cross,E05000449,,-0.027409246524924713,51.47787709615518,536857.9999720026,177388.66395419365,11/27/2022
Vaudeville Theatre,404 Strand,,City of Westminster,https://www.nimaxtheatres.com/vaudeville-theatre/,10033544051,E09000033,St. James's,E05000644,,-0.12247655187447566,51.51034644707493,530165.5561957472,180825.06457113865,11/27/2022
Theatre Delicatessen (Guardian House),119 Farringdon Road,,Islington,http://www.delistudios.co.uk/broadgate,10093624103,E09000019,Clerkenwell,E05000370,,-0.10845386132237624,51.52322361924053,531101.3677578324,182281.8124814998,11/27/2022
Chat's Palace,42 Brooksby's Walk,,Hackney,http://chatspalace.com,100023020798,E09000012,King's Park,E05009379,,-0.042683326455879175,51.55026392640687,535582.4029900779,185408.0194131403,11/27/2022
TripSpace Dance,339-340 Acton Mews,,Hackney,http://www.tripspace.co.uk,100023016667,E09000012,Haggerston,E05009375,,-0.07586457097290396,51.53679363512386,533321.917508259,183849.41566460283,11/27/2022
Her Majesty's Theatre,57 Haymarket,,City of Westminster,,100023349365,E09000033,St. James's,E05000644,,-0.1320069295137484,51.50812452822598,529510.6952639098,180561.1058186806,11/27/2022
West London School of Dance,25 Bulwer Street,,Hammersmith and Fulham,https://www.westlondonschoolofdance.co.uk,34039599,E09000013,Shepherd's Bush Green,E05000263,,-0.22374653497969876,51.505484972953944,523153.0827025457,180109.11526379368,11/27/2022
Theatro Technis,26 Crowndale Road,,Camden,http://www.theatrotechnis.com,5061419,E09000007,St. Pancras and Somers Town,E05000143,,-0.1346783042614774,51.53549591608827,529247.8001007922,183599.5440308834,11/27/2022
Questor's Theatre,12 Mattock Lane,,Ealing,http://www.questors.org.uk,12084402,E09000009,Walpole,E05000192,,-0.30965662431520685,51.51170888596852,517176.407127736,180659.8430943266,11/27/2022
JW3 (Jewish Community Centre London),351B Finchley Road,,Camden,https://www.jw3.org.uk,5164899,E09000007,West Hampstead,E05000145,,-0.18479152405561397,51.550912892683336,525730.6034732929,185226.18311217765,11/27/2022
Leicester Square Theatre,6 Leicester Place,,City of Westminster,http://www.leicestersquaretheatre.com,100023431690,E09000033,St. James's,E05000644,,-0.13007387269543458,51.511340102184406,529635.6746293672,180922.0397986744,11/27/2022
Tara Studio,356 Garratt Lane,,Wandsworth,https://www.tara-arts.com,121011012,E09000032,Earlsfield,E05000612,,-0.1884304249827461,51.44217584956201,525777.6181980747,173130.47711831873,11/27/2022
The Tabernacle,35 Powis Square,,Kensington and Chelsea,https://www.tabernaclew11.com,217070132,E09000020,Colville,E05009392,,-0.2018814067603197,51.516968162397546,524638.7820982584,181422.88900685904,11/27/2022
Beck Theatre,89 Grange Road,,Hillingdon,https://becktheatre.org.uk/Online/,10003001360,E09000017,Townfield,E05000339,,-0.421800756123298,51.521049798480966,509374.0498120586,181524.63550334598,11/27/2022
Rivoli Ballroom,350 Brockley Road,Crofton Park,Lewisham,https://www.rivoliballroom.com,10090782761,E09000023,Crofton Park,E05000441,,-0.03719375110440745,51.45526233825693,536246.1319037076,174856.1423543332,11/27/2022
Courtyard Theatre,40 Pitfield Street,,Hackney,http://www.thecourtyard.org.uk,100023136422,E09000012,Hoxton East & Shoreditch,E05009377,,-0.08337707468309591,51.52787925254408,532827.0041943259,182844.67512773728,11/27/2022
Studio K,2 Kew Road,,Richmond upon Thames,http://www.studiokdance.co.uk,10024346023,E09000027,South Richmond,E05000528,,-0.3017064577548405,51.46347521061349,517852.3750352361,175309.8907231326,11/27/2022
